[{"nameLocal": "28 Kilo Area", "parentId": "R3566353", "displayName": "28 Kilo Area", "reference_id": "R80314516"}, {"nameLocal": "Banepa Chowk Area", "parentId": "R3566353", "displayName": "Banepa Chowk Area", "reference_id": "R80314521"}, {"nameLocal": "Basghari Area", "parentId": "R3566353", "displayName": "Basghari Area", "reference_id": "R80314518"}, {"nameLocal": "Bhainsepati Area", "parentId": "R3566353", "displayName": "Bhainsepati Area", "reference_id": "RNP127"}, {"nameLocal": "Budol Area", "parentId": "R3566353", "displayName": "Budol Area", "reference_id": "R80314517"}, {"nameLocal": "Chandeshwori Temple Area", "parentId": "R3566353", "displayName": "Chandeshwori Temple Area", "reference_id": "R80314519"}, {"nameLocal": "Dhulikhel Area", "parentId": "R3566353", "displayName": "Dhulikhel Area", "reference_id": "R3566354"}, {"nameLocal": "Kathmandu university Area", "parentId": "R3566353", "displayName": "Kathmandu university Area", "reference_id": "RNP36"}, {"nameLocal": "Nala", "parentId": "R3566353", "displayName": "Nala", "reference_id": "RNP762"}, {"nameLocal": "Naya Basti Area", "parentId": "R3566353", "displayName": "Naya Basti Area", "reference_id": "R80314522"}, {"nameLocal": "Sanga", "parentId": "R3566353", "displayName": "Sanga", "reference_id": "RNP93"}, {"nameLocal": "Tindobato Area", "parentId": "R3566353", "displayName": "Tindobato Area", "reference_id": "R80314520"}, {"nameLocal": "Ugratara Janagal Bus Stop Area", "parentId": "R3566353", "displayName": "Ugratara Janagal Bus Stop Area", "reference_id": "RNP950"}, {"nameLocal": "Balkot Area", "parentId": "R4583251", "displayName": "Balkot Area", "reference_id": "R7715515"}, {"nameLocal": "Biruwa Buspark Area", "parentId": "R4583251", "displayName": "Biruwa Buspark Area", "reference_id": "RNP34"}, {"nameLocal": "Bode", "parentId": "R4583251", "displayName": "Bode", "reference_id": "RNP272"}, {"nameLocal": "Duwakot", "parentId": "R4583251", "displayName": "Duwakot", "reference_id": "RNP189"}, {"nameLocal": "Gaththaghar Area", "parentId": "R4583251", "displayName": "Gaththaghar Area", "reference_id": "R80302016"}, {"nameLocal": "Jagati Area", "parentId": "R4583251", "displayName": "Jagati Area", "reference_id": "R80302015"}, {"nameLocal": "Kamalbinayak Area", "parentId": "R4583251", "displayName": "Kamalbinayak Area", "reference_id": "R80302018"}, {"nameLocal": "Katunje Area", "parentId": "R4583251", "displayName": "Katunje Area", "reference_id": "R7714936"}, {"nameLocal": "Kausaltar Area", "parentId": "R4583251", "displayName": "Kausaltar Area", "reference_id": "RNP242"}, {"nameLocal": "Kharipati", "parentId": "R4583251", "displayName": "Kharipati", "reference_id": "RNP73"}, {"nameLocal": "Lohakanthali Area", "parentId": "R4583251", "displayName": "Lohakanthali Area", "reference_id": "R80302020"}, {"nameLocal": "New Thimi", "parentId": "R4583251", "displayName": "New Thimi", "reference_id": "RNP96"}, {"nameLocal": "Old Thimi", "parentId": "R4583251", "displayName": "Old Thimi", "reference_id": "RNP155"}, {"nameLocal": "Palanse", "parentId": "R4583251", "displayName": "Palanse", "reference_id": "RNP103"}, {"nameLocal": "Sallaghari Area", "parentId": "R4583251", "displayName": "Sallaghari Area", "reference_id": "R80302014"}, {"nameLocal": "Sano Thimi Area", "parentId": "R4583251", "displayName": "Sano Thimi Area", "reference_id": "R80302017"}, {"nameLocal": "Sirutar", "parentId": "R4583251", "displayName": "Sirutar", "reference_id": "RNP285"}, {"nameLocal": "Suryabinayak Area", "parentId": "R4583251", "displayName": "Suryabinayak Area", "reference_id": "R7714890"}, {"nameLocal": "Airport Area", "parentId": "RNP306", "displayName": "Airport Area", "reference_id": "RNP445"}, {"nameLocal": "Barhaghare Area", "parentId": "RNP306", "displayName": "Barhaghare Area", "reference_id": "RNP1051"}, {"nameLocal": "Basant Chowk Area", "parentId": "RNP306", "displayName": "Basant Chowk Area", "reference_id": "RNP952"}, {"nameLocal": "Baseni Area", "parentId": "RNP306", "displayName": "Baseni Area", "reference_id": "RNP682"}, {"nameLocal": "Belchowk Area", "parentId": "RNP306", "displayName": "Belchowk Area", "reference_id": "RNP820"}, {"nameLocal": "Bhojad Area", "parentId": "RNP306", "displayName": "Bhojad Area", "reference_id": "RNP971"}, {"nameLocal": "Bhrikuti Paper Mills Area", "parentId": "RNP306", "displayName": "Bhrikuti Paper Mills Area", "reference_id": "RNP992"}, {"nameLocal": "Birendra Campus Area", "parentId": "RNP306", "displayName": "Birendra Campus Area", "reference_id": "RNP529"}, {"nameLocal": "Buspark Area", "parentId": "RNP306", "displayName": "Buspark Area", "reference_id": "RNP627"}, {"nameLocal": "Cancer Hospital Area", "parentId": "RNP306", "displayName": "Cancer Hospital Area", "reference_id": "RNP363"}, {"nameLocal": "Champa Chaur Area", "parentId": "RNP306", "displayName": "Champa Chaur Area", "reference_id": "RNP830"}, {"nameLocal": "Chanauli", "parentId": "RNP306", "displayName": "Chanauli", "reference_id": "RNP1022"}, {"nameLocal": "Chaubiskoti Area", "parentId": "RNP306", "displayName": "Chaubiskoti Area", "reference_id": "RNP534"}, {"nameLocal": "Fulbari", "parentId": "RNP306", "displayName": "Fulbari", "reference_id": "RNP630"}, {"nameLocal": "Furti Chowk", "parentId": "RNP306", "displayName": "Furti Chowk", "reference_id": "RNP1091"}, {"nameLocal": "Gauriganj Area", "parentId": "RNP306", "displayName": "Gauriganj Area", "reference_id": "RNP800"}, {"nameLocal": "Hakim Chowk Area", "parentId": "RNP306", "displayName": "Hakim Chowk Area", "reference_id": "RNP494"}, {"nameLocal": "Indradev Marga Area", "parentId": "RNP306", "displayName": "Indradev Marga Area", "reference_id": "RNP600"}, {"nameLocal": "Jalma Hall Area", "parentId": "RNP306", "displayName": "Jalma Hall Area", "reference_id": "RNP915"}, {"nameLocal": "Junhall Road", "parentId": "RNP306", "displayName": "Junhall Road", "reference_id": "RNP664"}, {"nameLocal": "Kamal Nagar Area", "parentId": "RNP306", "displayName": "Kamal Nagar Area", "reference_id": "RNP811"}, {"nameLocal": "Krishnapur Area", "parentId": "RNP306", "displayName": "Krishnapur Area", "reference_id": "RNP717"}, {"nameLocal": "Lankhu Area", "parentId": "RNP306", "displayName": "Lankhu Area", "reference_id": "RNP805"}, {"nameLocal": "Lions Chowk Area", "parentId": "RNP306", "displayName": "Lions Chowk Area", "reference_id": "RNP926"}, {"nameLocal": "Mangalpur", "parentId": "RNP306", "displayName": "Mangalpur", "reference_id": "RNP472"}, {"nameLocal": "Munal Chowk Area", "parentId": "RNP306", "displayName": "Munal Chowk Area", "reference_id": "RNP478"}, {"nameLocal": "Narayani Path Area", "parentId": "RNP306", "displayName": "Narayani Path Area", "reference_id": "RNP684"}, {"nameLocal": "Paras Buspark Area", "parentId": "RNP306", "displayName": "Paras Buspark Area", "reference_id": "RNP317"}, {"nameLocal": "Pokhara Buspark Area", "parentId": "RNP306", "displayName": "Pokhara Buspark Area", "reference_id": "RNP838"}, {"nameLocal": "Putalisadak Area", "parentId": "RNP306", "displayName": "Putalisadak Area", "reference_id": "RNP878"}, {"nameLocal": "Rampur", "parentId": "RNP306", "displayName": "Rampur", "reference_id": "RNP517"}, {"nameLocal": "Shahid Chowk Area", "parentId": "RNP306", "displayName": "Shahid Chowk Area", "reference_id": "RNP770"}, {"nameLocal": "Sharadpur Area", "parentId": "RNP306", "displayName": "Sharadpur Area", "reference_id": "RNP773"}, {"nameLocal": "Shardanagar", "parentId": "RNP306", "displayName": "Shardanagar", "reference_id": "RNP730"}, {"nameLocal": "Thulo Balkumari Area", "parentId": "RNP306", "displayName": "Thulo Balkumari Area", "reference_id": "RNP711"}, {"nameLocal": "Tikauli", "parentId": "RNP306", "displayName": "Tikauli", "reference_id": "RNP367"}, {"nameLocal": "Buddha Chowk", "parentId": "RNP292", "displayName": "Buddha Chowk", "reference_id": "RNP470"}, {"nameLocal": "Cement Factory Area", "parentId": "RNP292", "displayName": "Cement Factory Area", "reference_id": "RNP406"}, {"nameLocal": "Chauki Tole Area", "parentId": "RNP292", "displayName": "Chauki Tole Area", "reference_id": "RNP413"}, {"nameLocal": "China Quarters Area", "parentId": "RNP292", "displayName": "China Quarters Area", "reference_id": "RNP535"}, {"nameLocal": "Eye Hospital Area", "parentId": "RNP292", "displayName": "Eye Hospital Area", "reference_id": "RNP416"}, {"nameLocal": "Forestry Institute Area", "parentId": "RNP292", "displayName": "Forestry Institute Area", "reference_id": "RNP451"}, {"nameLocal": "Golpingtar Area", "parentId": "RNP292", "displayName": "Golpingtar Area", "reference_id": "RNP489"}, {"nameLocal": "Hetauda Bus Park Area", "parentId": "RNP292", "displayName": "Hetauda Bus Park Area", "reference_id": "RNP532"}, {"nameLocal": "Hetauda Industrial Estate", "parentId": "RNP292", "displayName": "Hetauda Industrial Estate", "reference_id": "RNP311"}, {"nameLocal": "Hupra Chaur Area", "parentId": "RNP292", "displayName": "Hupra Chaur Area", "reference_id": "RNP527"}, {"nameLocal": "Kamal Dada", "parentId": "RNP292", "displayName": "Kamal Dada", "reference_id": "RNP455"}, {"nameLocal": "Makwanpur Campus Area", "parentId": "RNP292", "displayName": "Makwanpur Campus Area", "reference_id": "RNP485"}, {"nameLocal": "Sanopokhara Area", "parentId": "RNP292", "displayName": "Sanopokhara Area", "reference_id": "RNP337"}, {"nameLocal": "TCN Area", "parentId": "RNP292", "displayName": "TCN Area", "reference_id": "RNP465"}, {"nameLocal": "Gunjaman Singh Memorial Hospital Area", "parentId": "RNP554", "displayName": "Gunjaman Singh Memorial Hospital Area", "reference_id": "RNP989"}, {"nameLocal": "Jaymangala Bus Park Area", "parentId": "RNP554", "displayName": "Jaymangala Bus Park Area", "reference_id": "RNP832"}, {"nameLocal": "Jirauna Chowk", "parentId": "RNP554", "displayName": "Jirauna Chowk", "reference_id": "RNP961"}, {"nameLocal": "Jutpani Chowk", "parentId": "RNP554", "displayName": "Jutpani Chowk", "reference_id": "RNP1073"}, {"nameLocal": "Kholesimal", "parentId": "RNP554", "displayName": "Kholesimal", "reference_id": "RNP973"}, {"nameLocal": "Lalchowk Bus Park Area", "parentId": "RNP554", "displayName": "Lalchowk Bus Park Area", "reference_id": "RNP648"}, {"nameLocal": "Shanti Chowk", "parentId": "RNP554", "displayName": "Shanti Chowk", "reference_id": "RNP637"}, {"nameLocal": "Shera Chowk", "parentId": "RNP554", "displayName": "Shera Chowk", "reference_id": "RNP662"}, {"nameLocal": "Subba Chowk", "parentId": "RNP554", "displayName": "Subba Chowk", "reference_id": "RNP723"}, {"nameLocal": "Army Camp Gate", "parentId": "RNP548", "displayName": "Army Camp Gate", "reference_id": "RNP1079"}, {"nameLocal": "Campus Stop Area", "parentId": "RNP548", "displayName": "Campus Stop Area", "reference_id": "RNP1004"}, {"nameLocal": "Dhungrebaas", "parentId": "RNP548", "displayName": "Dhungrebaas", "reference_id": "RNP886"}, {"nameLocal": "Dhura Bazaar", "parentId": "RNP548", "displayName": "Dhura Bazaar", "reference_id": "RNP612"}, {"nameLocal": "Fm Marga", "parentId": "RNP548", "displayName": "Fm Marga", "reference_id": "RNP1057"}, {"nameLocal": "Laxman Chowk", "parentId": "RNP548", "displayName": "Laxman Chowk", "reference_id": "RNP765"}, {"nameLocal": "Milan Chowk", "parentId": "RNP548", "displayName": "Milan Chowk", "reference_id": "RNP644"}, {"nameLocal": "Siddha Baba Chowk", "parentId": "RNP548", "displayName": "Siddha Baba Chowk", "reference_id": "RNP891"}, {"nameLocal": "Sindhuli Bus Park Area", "parentId": "RNP548", "displayName": "Sindhuli Bus Park Area", "reference_id": "RNP934"}, {"nameLocal": "Sindhuli Haat Bazaar", "parentId": "RNP548", "displayName": "Sindhuli Haat Bazaar", "reference_id": "RNP985"}, {"nameLocal": "Bijuli Bazar", "parentId": "R80301897", "displayName": "Bijuli Bazar", "reference_id": "RNP188"}, {"nameLocal": "Buddhanagar", "parentId": "R80301897", "displayName": "Buddhanagar", "reference_id": "R80302095"}, {"nameLocal": "New Baneshwor Chowk", "parentId": "R80301897", "displayName": "New Baneshwor Chowk", "reference_id": "R80301983"}, {"nameLocal": "Ratna Rajya Area", "parentId": "R80301897", "displayName": "Ratna Rajya Area", "reference_id": "RNP63"}, {"nameLocal": "Shankhamul Area", "parentId": "R80301897", "displayName": "Shankhamul Area", "reference_id": "RNP46"}, {"nameLocal": "Thapagaun Area", "parentId": "R80301897", "displayName": "Thapagaun Area", "reference_id": "RNP273"}, {"nameLocal": "Babarmahal", "parentId": "R80301913", "displayName": "Babarmahal", "reference_id": "R80302071"}, {"nameLocal": "Maitighar", "parentId": "R80301913", "displayName": "Maitighar", "reference_id": "R80302072"}, {"nameLocal": "Shahid Gate", "parentId": "R80301913", "displayName": "Shahid Gate", "reference_id": "R80302074"}, {"nameLocal": "Thapathali", "parentId": "R80301913", "displayName": "Thapathali", "reference_id": "R80302070"}, {"nameLocal": "Tripureshwor", "parentId": "R80301913", "displayName": "Tripureshwor", "reference_id": "R80302068"}, {"nameLocal": "Teku", "parentId": "R80301930", "displayName": "Teku", "reference_id": "R80302150"}, {"nameLocal": "Bafal", "parentId": "R80301904", "displayName": "Bafal", "reference_id": "R80302010"}, {"nameLocal": "Kalimati", "parentId": "R80301904", "displayName": "Kalimati", "reference_id": "R80302007"}, {"nameLocal": "Kharibot", "parentId": "R80301904", "displayName": "Kharibot", "reference_id": "R80302011"}, {"nameLocal": "Soalteemode", "parentId": "R80301904", "displayName": "Soalteemode", "reference_id": "R80302009"}, {"nameLocal": "Tahachal", "parentId": "R80301904", "displayName": "Tahachal", "reference_id": "R80302008"}, {"nameLocal": "Balkhu", "parentId": "R80301900", "displayName": "Balkhu", "reference_id": "R80301990"}, {"nameLocal": "Kalanki Chowk", "parentId": "R80301900", "displayName": "Kalanki Chowk", "reference_id": "R80301991"}, {"nameLocal": "Kuleshwor", "parentId": "R80301900", "displayName": "Kuleshwor", "reference_id": "R80301989"}, {"nameLocal": "Ravi Bhawan", "parentId": "R80301900", "displayName": "Ravi Bhawan", "reference_id": "R80301988"}, {"nameLocal": "Bahiti", "parentId": "R80301923", "displayName": "Bahiti", "reference_id": "R80302101"}, {"nameLocal": "Bijeshwori", "parentId": "R80301923", "displayName": "Bijeshwori", "reference_id": "R80302100"}, {"nameLocal": "Chhauni", "parentId": "R80301923", "displayName": "Chhauni", "reference_id": "RNP40"}, {"nameLocal": "Dallu", "parentId": "R80301923", "displayName": "Dallu", "reference_id": "RNP101"}, {"nameLocal": "Kimdol", "parentId": "R80301923", "displayName": "Kimdol", "reference_id": "RNP204"}, {"nameLocal": "Sobhabhagawati", "parentId": "R80301923", "displayName": "Sobhabhagawati", "reference_id": "R80302102"}, {"nameLocal": "Swayambhu - Bhagwan Pau", "parentId": "R80301923", "displayName": "Swayambhu - Bhagwan Pau", "reference_id": "R80302099"}, {"nameLocal": "Balaju - Bypass", "parentId": "R80301929", "displayName": "Balaju - Bypass", "reference_id": "RNP75"}, {"nameLocal": "Balaju Chauki", "parentId": "R80301929", "displayName": "Balaju Chauki", "reference_id": "R80302145"}, {"nameLocal": "Balaju Chowk", "parentId": "R80301929", "displayName": "Balaju Chowk", "reference_id": "R80302143"}, {"nameLocal": "Balaju - Machha Pokhari", "parentId": "R80301929", "displayName": "Balaju - Machha Pokhari", "reference_id": "RNP113"}, {"nameLocal": "Banasthali", "parentId": "R80301929", "displayName": "Banasthali", "reference_id": "R80302144"}, {"nameLocal": "Kaldhara", "parentId": "R80301929", "displayName": "Kaldhara", "reference_id": "R80302147"}, {"nameLocal": "Khusibu", "parentId": "R80301929", "displayName": "Khusibu", "reference_id": "R80302148"}, {"nameLocal": "Paknajol", "parentId": "R80301929", "displayName": "Paknajol", "reference_id": "R80302146"}, {"nameLocal": "People's Dental Campus Area", "parentId": "R80301929", "displayName": "People's Dental Campus Area", "reference_id": "R80302142"}, {"nameLocal": "Sorhakhutte", "parentId": "R80301929", "displayName": "Sorhakhutte", "reference_id": "R80302149"}, {"nameLocal": "Chhetrapati", "parentId": "R80301917", "displayName": "Chhetrapati", "reference_id": "R80302083"}, {"nameLocal": "Dhalko", "parentId": "R80301917", "displayName": "Dhalko", "reference_id": "R80302084"}, {"nameLocal": "Dhobichaur", "parentId": "R80301917", "displayName": "Dhobichaur", "reference_id": "R80302085"}, {"nameLocal": "Bhurungkhel", "parentId": "R80301906", "displayName": "Bhurungkhel", "reference_id": "R80302022"}, {"nameLocal": "Raktakali", "parentId": "R80301906", "displayName": "Raktakali", "reference_id": "R80302021"}, {"nameLocal": "Hanumandhoka", "parentId": "R80301896", "displayName": "Hanumandhoka", "reference_id": "R80301981"}, {"nameLocal": "Tamsipakha", "parentId": "R80301896", "displayName": "Tamsipakha", "reference_id": "R80301982"}, {"nameLocal": "Durbarmarg", "parentId": "R80301912", "displayName": "Durbarmarg", "reference_id": "R80302065"}, {"nameLocal": "Jamal", "parentId": "R80301912", "displayName": "Jamal", "reference_id": "R80302063"}, {"nameLocal": "Kantipath", "parentId": "R80301912", "displayName": "Kantipath", "reference_id": "R80302064"}, {"nameLocal": "Naxal Bhagwati Bahal Area", "parentId": "R80301912", "displayName": "Naxal Bhagwati Bahal Area", "reference_id": "RNP165"}, {"nameLocal": "Naxal Narayan Chour", "parentId": "R80301912", "displayName": "Naxal Narayan Chour", "reference_id": "R80302066"}, {"nameLocal": "Jaishidebal", "parentId": "R80301919", "displayName": "Jaishidebal", "reference_id": "R80302090"}, {"nameLocal": "Marutole", "parentId": "R80301919", "displayName": "Marutole", "reference_id": "R80302089"}, {"nameLocal": "Ikubahal", "parentId": "R80301893", "displayName": "Ikubahal", "reference_id": "R80301972"}, {"nameLocal": "Lagantole", "parentId": "R80301893", "displayName": "Lagantole", "reference_id": "R80301970"}, {"nameLocal": "Tebahal", "parentId": "R80301893", "displayName": "Tebahal", "reference_id": "R80301971"}, {"nameLocal": "Dharmapath", "parentId": "R80301915", "displayName": "Dharmapath", "reference_id": "R80302080"}, {"nameLocal": "Khichhapokhari", "parentId": "R80301915", "displayName": "Khichhapokhari", "reference_id": "R80302079"}, {"nameLocal": "Newroad", "parentId": "R80301915", "displayName": "Newroad", "reference_id": "R80302078"}, {"nameLocal": "Sundhara", "parentId": "R80301915", "displayName": "Sundhara", "reference_id": "R80302077"}, {"nameLocal": "Basantapur", "parentId": "R80301925", "displayName": "Basantapur", "reference_id": "R80302104"}, {"nameLocal": "Indrachowk", "parentId": "R80301898", "displayName": "Indrachowk", "reference_id": "R80301984"}, {"nameLocal": "Naradevi", "parentId": "R80301898", "displayName": "Naradevi", "reference_id": "R80301985"}, {"nameLocal": "Ason", "parentId": "R80301908", "displayName": "Ason", "reference_id": "R80302028"}, {"nameLocal": "Kilagal", "parentId": "R80301908", "displayName": "Kilagal", "reference_id": "R80302027"}, {"nameLocal": "Tengal", "parentId": "R80301908", "displayName": "Tengal", "reference_id": "R80302026"}, {"nameLocal": "Gongabu Chowk", "parentId": "RNP8", "displayName": "Gongabu Chowk", "reference_id": "RNP120"}, {"nameLocal": "Kapurdhara", "parentId": "RNP8", "displayName": "Kapurdhara", "reference_id": "RNP81"}, {"nameLocal": "Mehpi", "parentId": "RNP8", "displayName": "Mehpi", "reference_id": "RNP47"}, {"nameLocal": "Mitra Nagar", "parentId": "RNP8", "displayName": "Mitra Nagar", "reference_id": "RNP215"}, {"nameLocal": "Nayabus park", "parentId": "RNP8", "displayName": "Nayabus park", "reference_id": "RNP173"}, {"nameLocal": "Ranibari", "parentId": "RNP8", "displayName": "Ranibari", "reference_id": "RNP247"}, {"nameLocal": "Samakhusi", "parentId": "RNP8", "displayName": "Samakhusi", "reference_id": "RNP41"}, {"nameLocal": "Galkhopakha", "parentId": "R80301901", "displayName": "Galkhopakha", "reference_id": "R80301996"}, {"nameLocal": "Jyatha", "parentId": "R80301901", "displayName": "Jyatha", "reference_id": "R80301994"}, {"nameLocal": "Lainchaur", "parentId": "R80301901", "displayName": "Lainchaur", "reference_id": "R80301993"}, {"nameLocal": "Thamel", "parentId": "R80301901", "displayName": "Thamel", "reference_id": "R80301995"}, {"nameLocal": "Bhotahiti", "parentId": "R80301899", "displayName": "Bhotahiti", "reference_id": "R80301986"}, {"nameLocal": "Kamalakshi", "parentId": "R80301899", "displayName": "Kamalakshi", "reference_id": "R80301987"}, {"nameLocal": "Bagbazar", "parentId": "R80301922", "displayName": "Bagbazar", "reference_id": "R80302097"}, {"nameLocal": "Bhrikutimandap", "parentId": "R80301922", "displayName": "Bhrikutimandap", "reference_id": "R80302096"}, {"nameLocal": "Ratnapark", "parentId": "R80301922", "displayName": "Ratnapark", "reference_id": "R80302098"}, {"nameLocal": "Bir Hospital", "parentId": "R80301910", "displayName": "Bir Hospital", "reference_id": "R80302032"}, {"nameLocal": "Kamaladi", "parentId": "R80301910", "displayName": "Kamaladi", "reference_id": "R80302034"}, {"nameLocal": "Tundikhel", "parentId": "R80301910", "displayName": "Tundikhel", "reference_id": "R80302033"}, {"nameLocal": "Anamnagar", "parentId": "R80301918", "displayName": "Anamnagar", "reference_id": "R80302088"}, {"nameLocal": "Ghattekulo", "parentId": "R80301918", "displayName": "Ghattekulo", "reference_id": "R80302087"}, {"nameLocal": "Singha Durbar", "parentId": "R80301918", "displayName": "Singha Durbar", "reference_id": "R80302086"}, {"nameLocal": "Bhaktapur Buspark", "parentId": "R80301924", "displayName": "Bhaktapur Buspark", "reference_id": "RNP59"}, {"nameLocal": "Exhibition Road", "parentId": "R80301924", "displayName": "Exhibition Road", "reference_id": "RNP115"}, {"nameLocal": "Putalisadak", "parentId": "R80301924", "displayName": "Putalisadak", "reference_id": "R80302103"}, {"nameLocal": "Dhobichaur", "parentId": "R80301909", "displayName": "Dhobichaur", "reference_id": "R80302030"}, {"nameLocal": "Gairidhara", "parentId": "R80301909", "displayName": "Gairidhara", "reference_id": "R80302031"}, {"nameLocal": "Lazimpat", "parentId": "R80301909", "displayName": "Lazimpat", "reference_id": "R80302029"}, {"nameLocal": "Dillibazar Pipalbot", "parentId": "R80301902", "displayName": "Dillibazar Pipalbot", "reference_id": "R80302002"}, {"nameLocal": "Gyaneshwor", "parentId": "R80301902", "displayName": "Gyaneshwor", "reference_id": "R80302001"}, {"nameLocal": "Maitidevi", "parentId": "R80301902", "displayName": "Maitidevi", "reference_id": "R80302000"}, {"nameLocal": "Aloknagar", "parentId": "R80301892", "displayName": "Aloknagar", "reference_id": "R80301968"}, {"nameLocal": "Bhimsengola", "parentId": "R80301892", "displayName": "Bhimsengola", "reference_id": "R80301965"}, {"nameLocal": "Chhitij Nagar", "parentId": "R80301892", "displayName": "Chhitij Nagar", "reference_id": "R80301967"}, {"nameLocal": "Min Bhawan", "parentId": "R80301892", "displayName": "Min Bhawan", "reference_id": "R80301966"}, {"nameLocal": "Shantinagar", "parentId": "R80301892", "displayName": "Shantinagar", "reference_id": "R80301969"}, {"nameLocal": "Jadibuti Area", "parentId": "R80301907", "displayName": "Jadibuti Area", "reference_id": "RNP259"}, {"nameLocal": "Kandaghari", "parentId": "R80301907", "displayName": "Kandaghari", "reference_id": "R80302023"}, {"nameLocal": "Koteshwor Chowk", "parentId": "R80301907", "displayName": "Koteshwor Chowk", "reference_id": "R80302024"}, {"nameLocal": "Mahadevsthan", "parentId": "R80301907", "displayName": "Mahadevsthan", "reference_id": "R80302025"}, {"nameLocal": "Narephat", "parentId": "R80301907", "displayName": "Narephat", "reference_id": "RNP263"}, {"nameLocal": "Pepsicola Area", "parentId": "R80301907", "displayName": "Pepsicola Area", "reference_id": "RNP164"}, {"nameLocal": "Subidhanagar", "parentId": "R80301916", "displayName": "Subidhanagar", "reference_id": "R80302081"}, {"nameLocal": "Tinkune", "parentId": "R80301916", "displayName": "Tinkune", "reference_id": "R80302082"}, {"nameLocal": "Baluwatar", "parentId": "R80301905", "displayName": "Baluwatar", "reference_id": "R80302012"}, {"nameLocal": "Panipokhari", "parentId": "R80301905", "displayName": "Panipokhari", "reference_id": "R80302013"}, {"nameLocal": "Narayan Gopal Chowk Area", "parentId": "R80301894", "displayName": "Narayan Gopal Chowk Area", "reference_id": "R80301974"}, {"nameLocal": "Teaching Hospital", "parentId": "R80301894", "displayName": "Teaching Hospital", "reference_id": "R80301973"}, {"nameLocal": "Bishalnagar", "parentId": "R80301903", "displayName": "Bishalnagar", "reference_id": "R80302004"}, {"nameLocal": "Chandol", "parentId": "R80301903", "displayName": "Chandol", "reference_id": "R80302005"}, {"nameLocal": "Chapal Karkhana", "parentId": "R80301903", "displayName": "Chapal Karkhana", "reference_id": "RNP111"}, {"nameLocal": "Chun Devi", "parentId": "R80301903", "displayName": "Chun Devi", "reference_id": "RNP51"}, {"nameLocal": "Dhumbarahi Chowk", "parentId": "R80301903", "displayName": "Dhumbarahi Chowk", "reference_id": "R80302003"}, {"nameLocal": "Dhumbarahi Pipalbot", "parentId": "R80301903", "displayName": "Dhumbarahi Pipalbot", "reference_id": "RNP105"}, {"nameLocal": "Sukedhara", "parentId": "R80301903", "displayName": "Sukedhara", "reference_id": "RNP245"}, {"nameLocal": "Bhatbhateni", "parentId": "R80301914", "displayName": "Bhatbhateni", "reference_id": "RNP193"}, {"nameLocal": "Handigaun", "parentId": "R80301914", "displayName": "Handigaun", "reference_id": "R80302075"}, {"nameLocal": "Maligaun", "parentId": "R80301914", "displayName": "Maligaun", "reference_id": "RNP282"}, {"nameLocal": "Sano Gaucharan", "parentId": "R80301914", "displayName": "Sano Gaucharan", "reference_id": "RNP260"}, {"nameLocal": "Tangal", "parentId": "R80301914", "displayName": "Tangal", "reference_id": "R80302076"}, {"nameLocal": "Chabahil Chowk", "parentId": "R80301926", "displayName": "Chabahil Chowk", "reference_id": "R80302108"}, {"nameLocal": "Chuchepati", "parentId": "R80301926", "displayName": "Chuchepati", "reference_id": "RNP26"}, {"nameLocal": "Gangahiti", "parentId": "R80301926", "displayName": "Gangahiti", "reference_id": "RNP191"}, {"nameLocal": "Gopikrishna Hall Area", "parentId": "R80301926", "displayName": "Gopikrishna Hall Area", "reference_id": "RNP183"}, {"nameLocal": "Kalopul", "parentId": "R80301926", "displayName": "Kalopul", "reference_id": "RNP132"}, {"nameLocal": "Kumarigal", "parentId": "R80301926", "displayName": "Kumarigal", "reference_id": "R80302106"}, {"nameLocal": "Kumaristhan", "parentId": "R80301926", "displayName": "Kumaristhan", "reference_id": "R80302109"}, {"nameLocal": "Mitrapark", "parentId": "R80301926", "displayName": "Mitrapark", "reference_id": "R80302107"}, {"nameLocal": "Siphal", "parentId": "R80301926", "displayName": "Siphal", "reference_id": "R80302105"}, {"nameLocal": "Gaurighat", "parentId": "R80301920", "displayName": "Gaurighat", "reference_id": "R80302092"}, {"nameLocal": "Gaushala", "parentId": "R80301920", "displayName": "Gaushala", "reference_id": "R80302091"}, {"nameLocal": "Guhyeshwari", "parentId": "R80301920", "displayName": "Guhyeshwari", "reference_id": "R80302094"}, {"nameLocal": "Jayabageshwori", "parentId": "R80301920", "displayName": "Jayabageshwori", "reference_id": "RNP94"}, {"nameLocal": "Pashupathinath", "parentId": "R80301920", "displayName": "Pashupathinath", "reference_id": "R80302093"}, {"nameLocal": "Airport", "parentId": "R80301895", "displayName": "Airport", "reference_id": "R80301977"}, {"nameLocal": "Battisputali", "parentId": "R80301895", "displayName": "Battisputali", "reference_id": "R80301978"}, {"nameLocal": "Gaurigaun", "parentId": "R80301895", "displayName": "Gaurigaun", "reference_id": "R80301976"}, {"nameLocal": "Old Baneshwor", "parentId": "R80301895", "displayName": "Old Baneshwor", "reference_id": "R80301975"}, {"nameLocal": "Sinamangal", "parentId": "R80301895", "displayName": "Sinamangal", "reference_id": "R80301979"}, {"nameLocal": "Tilganga", "parentId": "R80301895", "displayName": "Tilganga", "reference_id": "R80301980"}, {"nameLocal": "Boudha Area", "parentId": "R80301911", "displayName": "Boudha Area", "reference_id": "R80302056"}, {"nameLocal": "Budhanilkantha - Baluwakhani", "parentId": "R80301911", "displayName": "Budhanilkantha - Baluwakhani", "reference_id": "RNP166"}, {"nameLocal": "Budhanilkantha - Budhanilkantha Nayapul", "parentId": "R80301911", "displayName": "Budhanilkantha - Budhanilkantha Nayapul", "reference_id": "RNP995"}, {"nameLocal": "Budhanilkantha - Chapali Area", "parentId": "R80301911", "displayName": "Budhanilkantha - Chapali Area", "reference_id": "R80302058"}, {"nameLocal": "Budhanilkantha - Chunikhel Buspark Area", "parentId": "R80301911", "displayName": "Budhanilkantha - Chunikhel Buspark Area", "reference_id": "RNP66"}, {"nameLocal": "Budhanilkantha - Golfutar Area", "parentId": "R80301911", "displayName": "Budhanilkantha - Golfutar Area", "reference_id": "R80302053"}, {"nameLocal": "Budhanilkantha - Kapan Area", "parentId": "R80301911", "displayName": "Budhanilkantha - Kapan Area", "reference_id": "R80302048"}, {"nameLocal": "Budhanilkantha - Mandikhatar Area", "parentId": "R80301911", "displayName": "Budhanilkantha - Mandikhatar Area", "reference_id": "R80302041"}, {"nameLocal": "Budhanilkantha - Narayanthan Temple Area", "parentId": "R80301911", "displayName": "Budhanilkantha - Narayanthan Temple Area", "reference_id": "R80302036"}, {"nameLocal": "Budhanilkantha - Paiyatar Area", "parentId": "R80301911", "displayName": "Budhanilkantha - Paiyatar Area", "reference_id": "RNP122"}, {"nameLocal": "Chandragiri - Dahachowk", "parentId": "R80301911", "displayName": "Chandragiri - Dahachowk", "reference_id": "RNP1075"}, {"nameLocal": "Chandragiri - Kalanki Area", "parentId": "R80301911", "displayName": "Chandragiri - Kalanki Area", "reference_id": "R80302040"}, {"nameLocal": "Chandragiri - Macchegaun", "parentId": "R80301911", "displayName": "Chandragiri - Macchegaun", "reference_id": "RNP201"}, {"nameLocal": "Chandragiri - Matatirtha Area", "parentId": "R80301911", "displayName": "Chandragiri - Matatirtha Area", "reference_id": "RNP76"}, {"nameLocal": "Chandragiri - Nagdhunga", "parentId": "R80301911", "displayName": "Chandragiri - Nagdhunga", "reference_id": "R80302043"}, {"nameLocal": "Chandragiri - Satungal Area", "parentId": "R80301911", "displayName": "Chandragiri - Satungal Area", "reference_id": "R80302037"}, {"nameLocal": "Dakshinkali - Chalnakhel", "parentId": "R80301911", "displayName": "Dakshinkali - Chalnakhel", "reference_id": "RNP920"}, {"nameLocal": "Dakshinkali - Pharping", "parentId": "R80301911", "displayName": "Dakshinkali - Pharping", "reference_id": "RNP866"}, {"nameLocal": "Gokarneshwar - Arubari", "parentId": "R80301911", "displayName": "Gokarneshwar - Arubari", "reference_id": "R80302050"}, {"nameLocal": "Gokarneshwar - Attarkhel Area", "parentId": "R80301911", "displayName": "Gokarneshwar - Attarkhel Area", "reference_id": "R80302055"}, {"nameLocal": "Gokarneshwar - Jorpati Area", "parentId": "R80301911", "displayName": "Gokarneshwar - Jorpati Area", "reference_id": "R80302062"}, {"nameLocal": "Gokarneshwar - Makalbari", "parentId": "R80301911", "displayName": "Gokarneshwar - Makalbari", "reference_id": "RNP278"}, {"nameLocal": "Gokarneshwor - Nayapati", "parentId": "R80301911", "displayName": "Gokarneshwor - Nayapati", "reference_id": "RNP1070"}, {"nameLocal": "Gokarneshwor - Ramhiti", "parentId": "R80301911", "displayName": "Gokarneshwor - Ramhiti", "reference_id": "RNP221"}, {"nameLocal": "Gokarneshwor Temple Area", "parentId": "R80301911", "displayName": "Gokarneshwor Temple Area", "reference_id": "RNP25"}, {"nameLocal": "Kageshwori Manohara - Gothatar Tej Binayak Chowk", "parentId": "R80301911", "displayName": "Kageshwori Manohara - Gothatar Tej Binayak Chowk", "reference_id": "RNP274"}, {"nameLocal": "Kageshwori Manohara - Green Hill City Area", "parentId": "R80301911", "displayName": "Kageshwori Manohara - Green Hill City Area", "reference_id": "RNP238"}, {"nameLocal": "Kageshwori Manohara - Mulpani", "parentId": "R80301911", "displayName": "Kageshwori Manohara - Mulpani", "reference_id": "RNP33"}, {"nameLocal": "Kageshwori Manohara - Thali", "parentId": "R80301911", "displayName": "Kageshwori Manohara - Thali", "reference_id": "RNP168"}, {"nameLocal": "Kirtipur - Buspark Area", "parentId": "R80301911", "displayName": "Kirtipur - Buspark Area", "reference_id": "R80302059"}, {"nameLocal": "Kirtipur - Chovar", "parentId": "R80301911", "displayName": "Kirtipur - Chovar", "reference_id": "RNP28"}, {"nameLocal": "Kirtipur - Nayabazar Area", "parentId": "R80301911", "displayName": "Kirtipur - Nayabazar Area", "reference_id": "R80302057"}, {"nameLocal": "Kirtipur - Panga Area", "parentId": "R80301911", "displayName": "Kirtipur - Panga Area", "reference_id": "R80302042"}, {"nameLocal": "Kirtipur - Taudaha", "parentId": "R80301911", "displayName": "Kirtipur - Taudaha", "reference_id": "RNP240"}, {"nameLocal": "Kirtipur - TU Area", "parentId": "R80301911", "displayName": "Kirtipur - TU Area", "reference_id": "R80302047"}, {"nameLocal": "Kirtipur - Tyanglaphat Area", "parentId": "R80301911", "displayName": "Kirtipur - Tyanglaphat Area", "reference_id": "R80302060"}, {"nameLocal": "Nagarjun - Banasthali Kharibot Chowk", "parentId": "R80301911", "displayName": "Nagarjun - Banasthali Kharibot Chowk", "reference_id": "RNP904"}, {"nameLocal": "Nagarjun - Bhimdunga", "parentId": "R80301911", "displayName": "Nagarjun - Bhimdunga", "reference_id": "RNP629"}, {"nameLocal": "Nagarjun - Boharatar Area", "parentId": "R80301911", "displayName": "Nagarjun - Boharatar Area", "reference_id": "RNP194"}, {"nameLocal": "Nagarjun - Buddha chowk", "parentId": "R80301911", "displayName": "Nagarjun - Buddha chowk", "reference_id": "RNP859"}, {"nameLocal": "Nagarjun - Gairigaun", "parentId": "R80301911", "displayName": "Nagarjun - Gairigaun", "reference_id": "RNP736"}, {"nameLocal": "Nagarjun - Namgel Chowk", "parentId": "R80301911", "displayName": "Nagarjun - Namgel Chowk", "reference_id": "RNP697"}, {"nameLocal": "Nagarjun - Naya Naikap", "parentId": "R80301911", "displayName": "Nagarjun - Naya Naikap", "reference_id": "RNP37"}, {"nameLocal": "Nagarjun - Nursery chowk", "parentId": "R80301911", "displayName": "Nagarjun - Nursery chowk", "reference_id": "RNP725"}, {"nameLocal": "Nagarjun - Padma Colony", "parentId": "R80301911", "displayName": "Nagarjun - Padma Colony", "reference_id": "RNP1041"}, {"nameLocal": "Nagarjun - Purano Naikap", "parentId": "R80301911", "displayName": "Nagarjun - Purano Naikap", "reference_id": "RNP187"}, {"nameLocal": "Nagarjun - Radhakrishna mandir", "parentId": "R80301911", "displayName": "Nagarjun - Radhakrishna mandir", "reference_id": "RNP885"}, {"nameLocal": "Nagarjun - Ramkot Area", "parentId": "R80301911", "displayName": "Nagarjun - Ramkot Area", "reference_id": "RNP170"}, {"nameLocal": "Nagarjun - Sano Bharyang Area", "parentId": "R80301911", "displayName": "Nagarjun - Sano Bharyang Area", "reference_id": "R80302039"}, {"nameLocal": "Nagarjun - Saranpur", "parentId": "R80301911", "displayName": "Nagarjun - Saranpur", "reference_id": "RNP993"}, {"nameLocal": "Nagarjun - Sitapaila Area", "parentId": "R80301911", "displayName": "Nagarjun - Sitapaila Area", "reference_id": "R80302051"}, {"nameLocal": "Nagarjun - Soltee Dobato Area", "parentId": "R80301911", "displayName": "Nagarjun - Soltee Dobato Area", "reference_id": "R80302035"}, {"nameLocal": "Nagarjun - Syuchatar", "parentId": "R80301911", "displayName": "Nagarjun - Syuchatar", "reference_id": "RNP234"}, {"nameLocal": "Nagarjun - Thulo Bharyang Area", "parentId": "R80301911", "displayName": "Nagarjun - Thulo Bharyang Area", "reference_id": "R80302061"}, {"nameLocal": "Nagarjun - Tindhara", "parentId": "R80301911", "displayName": "Nagarjun - Tindhara", "reference_id": "RNP801"}, {"nameLocal": "Nagarjun - Tinghare Area", "parentId": "R80301911", "displayName": "Nagarjun - Tinghare Area", "reference_id": "RNP916"}, {"nameLocal": "Nagarjun - White Gumba", "parentId": "R80301911", "displayName": "Nagarjun - White Gumba", "reference_id": "RNP986"}, {"nameLocal": "Shankharapur - Salambutar", "parentId": "R80301911", "displayName": "Shankharapur - Salambutar", "reference_id": "RNP80"}, {"nameLocal": "Shankharapur - Sankhu", "parentId": "R80301911", "displayName": "Shankharapur - Sankhu", "reference_id": "RNP83"}, {"nameLocal": "Tarakeshwor - Dandagaun Area", "parentId": "R80301911", "displayName": "Tarakeshwor - Dandagaun Area", "reference_id": "RNP1061"}, {"nameLocal": "Tarakeshwor - Dharmasthali", "parentId": "R80301911", "displayName": "Tarakeshwor - Dharmasthali", "reference_id": "RNP209"}, {"nameLocal": "Tarakeshwor - Goldhunga Nagarjun School Area", "parentId": "R80301911", "displayName": "Tarakeshwor - Goldhunga Nagarjun School Area", "reference_id": "RNP256"}, {"nameLocal": "Tarakeshwor - Hiledol Area", "parentId": "R80301911", "displayName": "Tarakeshwor - Hiledol Area", "reference_id": "RNP816"}, {"nameLocal": "Tarakeshwor - Jarankhu Area", "parentId": "R80301911", "displayName": "Tarakeshwor - Jarankhu Area", "reference_id": "RNP84"}, {"nameLocal": "Tarakeshwor - Kavresthali Buspark Area", "parentId": "R80301911", "displayName": "Tarakeshwor - Kavresthali Buspark Area", "reference_id": "RNP267"}, {"nameLocal": "Tarakeshwor - Lolang Area", "parentId": "R80301911", "displayName": "Tarakeshwor - Lolang Area", "reference_id": "RNP641"}, {"nameLocal": "Tarakeshwor - Manamaiju Area", "parentId": "R80301911", "displayName": "Tarakeshwor - Manamaiju Area", "reference_id": "R80302045"}, {"nameLocal": "Tarakeshwor - Nepaltar Area", "parentId": "R80301911", "displayName": "Tarakeshwor - Nepaltar Area", "reference_id": "R80302038"}, {"nameLocal": "Tarakeshwor - Phutung Bus Stop Area", "parentId": "R80301911", "displayName": "Tarakeshwor - Phutung Bus Stop Area", "reference_id": "RNP631"}, {"nameLocal": "Tarakeshwor - Purano Gueshwari Area", "parentId": "R80301911", "displayName": "Tarakeshwor - Purano Gueshwari Area", "reference_id": "R80302044"}, {"nameLocal": "Tokha - Baniyatar", "parentId": "R80301911", "displayName": "Tokha - Baniyatar", "reference_id": "RNP746"}, {"nameLocal": "Tokha - Bhakte ko pool", "parentId": "R80301911", "displayName": "Tokha - Bhakte ko pool", "reference_id": "RNP669"}, {"nameLocal": "Tokha - Bhutkhel", "parentId": "R80301911", "displayName": "Tokha - Bhutkhel", "reference_id": "RNP639"}, {"nameLocal": "Tokha - Dhapasi Area", "parentId": "R80301911", "displayName": "Tokha - Dhapasi Area", "reference_id": "R80302054"}, {"nameLocal": "Tokha - Gongabu Area", "parentId": "R80301911", "displayName": "Tokha - Gongabu Area", "reference_id": "R80302052"}, {"nameLocal": "Tokha - Grande Area", "parentId": "R80301911", "displayName": "Tokha - Grande Area", "reference_id": "R80302046"}, {"nameLocal": "Tokha - Jalpachowk", "parentId": "R80301911", "displayName": "Tokha - Jalpachowk", "reference_id": "RNP1035"}, {"nameLocal": "Tokha - Suryadarshan Height", "parentId": "R80301911", "displayName": "Tokha - Suryadarshan Height", "reference_id": "RNP782"}, {"nameLocal": "Tokha - Tokha Ganeshthan Area", "parentId": "R80301911", "displayName": "Tokha - Tokha Ganeshthan Area", "reference_id": "R80302049"}, {"nameLocal": "Jyamire", "parentId": "RNP304", "displayName": "Jyamire", "reference_id": "RNP384"}, {"nameLocal": "Parsa Chaubiskoti", "parentId": "RNP304", "displayName": "Parsa Chaubiskoti", "reference_id": "RNP312"}, {"nameLocal": "Purano Parsa", "parentId": "RNP304", "displayName": "Purano Parsa", "reference_id": "RNP524"}, {"nameLocal": "Ward 10 - Chakupat Area", "parentId": "R80301927", "displayName": "Ward 10 - Chakupat Area", "reference_id": "R80302111"}, {"nameLocal": "Ward 11 - Banglamukhi Area", "parentId": "R80301927", "displayName": "Ward 11 - Banglamukhi Area", "reference_id": "R80302112"}, {"nameLocal": "Ward 12 - Thaina Area", "parentId": "R80301927", "displayName": "Ward 12 - Thaina Area", "reference_id": "R80302113"}, {"nameLocal": "Ward 14 - Kusunti Area", "parentId": "R80301927", "displayName": "Ward 14 - Kusunti Area", "reference_id": "R80302114"}, {"nameLocal": "Ward 15 - Lagankhel Area", "parentId": "R80301927", "displayName": "Ward 15 - Lagankhel Area", "reference_id": "R80302123"}, {"nameLocal": "Ward 15 - Satdobato Area", "parentId": "R80301927", "displayName": "Ward 15 - Satdobato Area", "reference_id": "R80302129"}, {"nameLocal": "Ward 16 - Mangalbazar Area", "parentId": "R80301927", "displayName": "Ward 16 - Mangalbazar Area", "reference_id": "R80302127"}, {"nameLocal": "Ward 17 - Gwarko Area", "parentId": "R80301927", "displayName": "Ward 17 - Gwarko Area", "reference_id": "R80302130"}, {"nameLocal": "Ward 19 - Macchindrabahal Area", "parentId": "R80301927", "displayName": "Ward 19 - Macchindrabahal Area", "reference_id": "R80302132"}, {"nameLocal": "Ward 1 - Kupandol Area", "parentId": "R80301927", "displayName": "Ward 1 - Kupandol Area", "reference_id": "R80302128"}, {"nameLocal": "Ward 20 - Patandhoka Area", "parentId": "R80301927", "displayName": "Ward 20 - Patandhoka Area", "reference_id": "R80302121"}, {"nameLocal": "Ward 2 - Jhamsikhel Area", "parentId": "R80301927", "displayName": "Ward 2 - Jhamsikhel Area", "reference_id": "R80302118"}, {"nameLocal": "Ward 2 - Kalopul Area", "parentId": "R80301927", "displayName": "Ward 2 - Kalopul Area", "reference_id": "R80302126"}, {"nameLocal": "Ward 2 - Sanepa Area", "parentId": "R80301927", "displayName": "Ward 2 - Sanepa Area", "reference_id": "R80302131"}, {"nameLocal": "Ward 3 - Pulchowk Area", "parentId": "R80301927", "displayName": "Ward 3 - Pulchowk Area", "reference_id": "R80302124"}, {"nameLocal": "Ward 4 - Jawalakhel Area", "parentId": "R80301927", "displayName": "Ward 4 - Jawalakhel Area", "reference_id": "R80302125"}, {"nameLocal": "Ward 5 - Kumaripati Area", "parentId": "R80301927", "displayName": "Ward 5 - Kumaripati Area", "reference_id": "R80302116"}, {"nameLocal": "Ward 5 - Patan Hospital Area", "parentId": "R80301927", "displayName": "Ward 5 - Patan Hospital Area", "reference_id": "R80302110"}, {"nameLocal": "Ward 6 - Kanibahal Area", "parentId": "R80301927", "displayName": "Ward 6 - Kanibahal Area", "reference_id": "R80302119"}, {"nameLocal": "Ward 7 - Sundhara Area", "parentId": "R80301927", "displayName": "Ward 7 - Sundhara Area", "reference_id": "R80302120"}, {"nameLocal": "Ward 8 - Guitole Area", "parentId": "R80301927", "displayName": "Ward 8 - Guitole Area", "reference_id": "R80302115"}, {"nameLocal": "Ward 9 - Balkumari Area", "parentId": "R80301927", "displayName": "Ward 9 - Balkumari Area", "reference_id": "R80302122"}, {"nameLocal": "Ward 9 - Chayasal Area", "parentId": "R80301927", "displayName": "Ward 9 - Chayasal Area", "reference_id": "RNP90"}, {"nameLocal": "Godawari - Bajrabarahi Area", "parentId": "R80301928", "displayName": "Godawari - Bajrabarahi Area", "reference_id": "RNP169"}, {"nameLocal": "Godawari - Botanical Garden Area", "parentId": "R80301928", "displayName": "Godawari - Botanical Garden Area", "reference_id": "RNP219"}, {"nameLocal": "Godawari - Chapagaun Buspark Area", "parentId": "R80301928", "displayName": "Godawari - Chapagaun Buspark Area", "reference_id": "RNP110"}, {"nameLocal": "Godawari - Jharuwarasi", "parentId": "R80301928", "displayName": "Godawari - Jharuwarasi", "reference_id": "RNP949"}, {"nameLocal": "Godawari - Thaiba", "parentId": "R80301928", "displayName": "Godawari - Thaiba", "reference_id": "RNP49"}, {"nameLocal": "Godawari - Thecho", "parentId": "R80301928", "displayName": "Godawari - Thecho", "reference_id": "RNP203"}, {"nameLocal": "Karyabinayak - Chhampi", "parentId": "R80301928", "displayName": "Karyabinayak - Chhampi", "reference_id": "RNP914"}, {"nameLocal": "Karyabinayak - Chunikhel", "parentId": "R80301928", "displayName": "Karyabinayak - Chunikhel", "reference_id": "RNP610"}, {"nameLocal": "Karyabinayak - Dhaichhap", "parentId": "R80301928", "displayName": "Karyabinayak - Dhaichhap", "reference_id": "RNP988"}, {"nameLocal": "Karyabinayak - Khokana", "parentId": "R80301928", "displayName": "Karyabinayak - Khokana", "reference_id": "R80302139"}, {"nameLocal": "KaryaBinayak - Tikabhairabh", "parentId": "R80301928", "displayName": "KaryaBinayak - Tikabhairabh", "reference_id": "RNP977"}, {"nameLocal": "Lalitpur - Bhaisepati Area", "parentId": "R80301928", "displayName": "Lalitpur - Bhaisepati Area", "reference_id": "R80302141"}, {"nameLocal": "Lalitpur - Bungamati Area", "parentId": "R80301928", "displayName": "Lalitpur - Bungamati Area", "reference_id": "R80302137"}, {"nameLocal": "Lalitpur - Chokhel Area", "parentId": "R80301928", "displayName": "Lalitpur - Chokhel Area", "reference_id": "R80302134"}, {"nameLocal": "Lalitpur - Dhapakhel Area", "parentId": "R80301928", "displayName": "Lalitpur - Dhapakhel Area", "reference_id": "R80302140"}, {"nameLocal": "Lalitpur - Dholahiti", "parentId": "R80301928", "displayName": "Lalitpur - Dholahiti", "reference_id": "RNP948"}, {"nameLocal": "Lalitpur - Harisiddhi Patan Area", "parentId": "R80301928", "displayName": "Lalitpur - Harisiddhi Patan Area", "reference_id": "R80302135"}, {"nameLocal": "Lalitpur - Imadole Area", "parentId": "R80301928", "displayName": "Lalitpur - Imadole Area", "reference_id": "R80302136"}, {"nameLocal": "Lalitpur - Loha Chowk", "parentId": "R80301928", "displayName": "Lalitpur - Loha Chowk", "reference_id": "RNP870"}, {"nameLocal": "Lalitpur - Nakhipot Area", "parentId": "R80301928", "displayName": "Lalitpur - Nakhipot Area", "reference_id": "RNP153"}, {"nameLocal": "Lalitpur - Nakhipot Kantipur Colony", "parentId": "R80301928", "displayName": "Lalitpur - Nakhipot Kantipur Colony", "reference_id": "RNP883"}, {"nameLocal": "Lalitpur - Nakhu Area", "parentId": "R80301928", "displayName": "Lalitpur - Nakhu Area", "reference_id": "R80302138"}, {"nameLocal": "Lalitpur - Ranibu Area", "parentId": "R80301928", "displayName": "Lalitpur - Ranibu Area", "reference_id": "RNP616"}, {"nameLocal": "Lalitpur - Sanepa Indrayani Mandir", "parentId": "R80301928", "displayName": "Lalitpur - Sanepa Indrayani Mandir", "reference_id": "RNP128"}, {"nameLocal": "Lalitpur - Sunakoti Area", "parentId": "R80301928", "displayName": "Lalitpur - Sunakoti Area", "reference_id": "R80302133"}, {"nameLocal": "Mahalaxmi - Changathali", "parentId": "R80301928", "displayName": "Mahalaxmi - Changathali", "reference_id": "RNP942"}, {"nameLocal": "Mahalaxmi - Lamatar Bus Stop Area", "parentId": "R80301928", "displayName": "Mahalaxmi - Lamatar Bus Stop Area", "reference_id": "RNP200"}, {"nameLocal": "Mahalaxmi - Lubhu", "parentId": "R80301928", "displayName": "Mahalaxmi - Lubhu", "reference_id": "RNP39"}, {"nameLocal": "Mahalaxmi - Tikathali", "parentId": "R80301928", "displayName": "Mahalaxmi - Tikathali", "reference_id": "RNP277"}, {"nameLocal": "Badarmude Park Area", "parentId": "RNP580", "displayName": "Badarmude Park Area", "reference_id": "RNP806"}, {"nameLocal": "Baruwa", "parentId": "RNP580", "displayName": "Baruwa", "reference_id": "RNP667"}, {"nameLocal": "Basantapur Bazar", "parentId": "RNP580", "displayName": "Basantapur Bazar", "reference_id": "RNP960"}, {"nameLocal": "Gardi Chowk", "parentId": "RNP580", "displayName": "Gardi Chowk", "reference_id": "RNP780"}, {"nameLocal": "Kalyanpur", "parentId": "RNP580", "displayName": "Kalyanpur", "reference_id": "RNP888"}, {"nameLocal": "Sidhuwa Ground", "parentId": "RNP580", "displayName": "Sidhuwa Ground", "reference_id": "RNP724"}, {"nameLocal": "Panauti Municipality office Area", "parentId": "RNP581", "displayName": "Panauti Municipality office Area", "reference_id": "RNP743"}, {"nameLocal": "Panauti Museum area", "parentId": "RNP581", "displayName": "Panauti Museum area", "reference_id": "RNP732"}, {"nameLocal": "Wolachhen Bagaicha Area", "parentId": "RNP581", "displayName": "Wolachhen Bagaicha Area", "reference_id": "RNP809"}, {"nameLocal": "Bhandara", "parentId": "RNP294", "displayName": "Bhandara", "reference_id": "RNP427"}, {"nameLocal": "Khurkhure", "parentId": "RNP294", "displayName": "Khurkhure", "reference_id": "RNP383"}, {"nameLocal": "Bakular", "parentId": "RNP291", "displayName": "Bakular", "reference_id": "RNP508"}, {"nameLocal": "Sauraha Chowk", "parentId": "RNP291", "displayName": "Sauraha Chowk", "reference_id": "RNP309"}, {"nameLocal": "Tadi Bazar", "parentId": "RNP291", "displayName": "Tadi Bazar", "reference_id": "RNP387"}, {"nameLocal": "Bhimad Bazaar", "parentId": "RNP543", "displayName": "Bhimad Bazaar", "reference_id": "RNP708"}, {"nameLocal": "Male Bagar Bazaar", "parentId": "RNP543", "displayName": "Male Bagar Bazaar", "reference_id": "RNP666"}, {"nameLocal": "Pipal Dada", "parentId": "RNP543", "displayName": "Pipal Dada", "reference_id": "RNP1065"}, {"nameLocal": "Purano Bazaar", "parentId": "RNP543", "displayName": "Purano Bazaar", "reference_id": "RNP774"}, {"nameLocal": "Tanahu Technical School Area", "parentId": "RNP543", "displayName": "Tanahu Technical School Area", "reference_id": "RNP656"}, {"nameLocal": "Aadikavi Bhanubhakta Campus Area", "parentId": "RNP7", "displayName": "Aadikavi Bhanubhakta Campus Area", "reference_id": "RNP30"}, {"nameLocal": "Bhadgau", "parentId": "RNP7", "displayName": "Bhadgau", "reference_id": "RNP62"}, {"nameLocal": "Chapaghat", "parentId": "RNP7", "displayName": "Chapaghat", "reference_id": "RNP233"}, {"nameLocal": "Damauli Bazar", "parentId": "RNP7", "displayName": "Damauli Bazar", "reference_id": "RNP275"}, {"nameLocal": "Damauli Bus Station Area", "parentId": "RNP7", "displayName": "Damauli Bus Station Area", "reference_id": "RNP117"}, {"nameLocal": "Damauli College", "parentId": "RNP7", "displayName": "Damauli College", "reference_id": "RNP131"}, {"nameLocal": "Darai Gau", "parentId": "RNP7", "displayName": "Darai Gau", "reference_id": "RNP152"}, {"nameLocal": "Dharai Padhera Area", "parentId": "RNP7", "displayName": "Dharai Padhera Area", "reference_id": "RNP142"}, {"nameLocal": "Dihi Gaun", "parentId": "RNP7", "displayName": "Dihi Gaun", "reference_id": "RNP106"}, {"nameLocal": "District Hospital Area", "parentId": "RNP7", "displayName": "District Hospital Area", "reference_id": "RNP266"}, {"nameLocal": "Immanuel Church Area", "parentId": "RNP7", "displayName": "Immanuel Church Area", "reference_id": "RNP92"}, {"nameLocal": "Patan", "parentId": "RNP7", "displayName": "Patan", "reference_id": "RNP60"}, {"nameLocal": "Vorletar Chowk", "parentId": "RNP7", "displayName": "Vorletar Chowk", "reference_id": "RNP88"}, {"nameLocal": "Daldale", "parentId": "RNP567", "displayName": "Daldale", "reference_id": "RNP655"}, {"nameLocal": "Dharapani Bazaar", "parentId": "RNP567", "displayName": "Dharapani Bazaar", "reference_id": "RNP833"}, {"nameLocal": "Kadampur Chowk", "parentId": "RNP567", "displayName": "Kadampur Chowk", "reference_id": "RNP1052"}, {"nameLocal": "Milan Chowk", "parentId": "RNP567", "displayName": "Milan Chowk", "reference_id": "RNP700"}, {"nameLocal": "Piprahar", "parentId": "RNP567", "displayName": "Piprahar", "reference_id": "RNP771"}, {"nameLocal": "Pragatinagar", "parentId": "RNP567", "displayName": "Pragatinagar", "reference_id": "RNP677"}, {"nameLocal": "Prithvi Nagar", "parentId": "RNP567", "displayName": "Prithvi Nagar", "reference_id": "RNP1071"}, {"nameLocal": "Rajahar Bazaar", "parentId": "RNP567", "displayName": "Rajahar Bazaar", "reference_id": "RNP966"}, {"nameLocal": "Sashwat Dham Area", "parentId": "RNP567", "displayName": "Sashwat Dham Area", "reference_id": "RNP592"}, {"nameLocal": "Congress Chowk", "parentId": "RNP293", "displayName": "Congress Chowk", "reference_id": "RNP523"}, {"nameLocal": "Gaindakot Municipality Office Area", "parentId": "RNP293", "displayName": "Gaindakot Municipality Office Area", "reference_id": "RNP349"}, {"nameLocal": "Ganesh Mandir Area", "parentId": "RNP293", "displayName": "Ganesh Mandir Area", "reference_id": "RNP434"}, {"nameLocal": "Harihar Mandir", "parentId": "RNP293", "displayName": "Harihar Mandir", "reference_id": "RNP493"}, {"nameLocal": "Kali Gandaki Bus Stop Area", "parentId": "RNP293", "displayName": "Kali Gandaki Bus Stop Area", "reference_id": "RNP525"}, {"nameLocal": "Kalika Mandir Area", "parentId": "RNP293", "displayName": "Kalika Mandir Area", "reference_id": "RNP319"}, {"nameLocal": "Maula Kalika", "parentId": "RNP293", "displayName": "Maula Kalika", "reference_id": "RNP461"}, {"nameLocal": "Nabajagaran Cricket Ground - NCG", "parentId": "RNP293", "displayName": "Nabajagaran Cricket Ground - NCG", "reference_id": "RNP479"}, {"nameLocal": "Thumsi Area", "parentId": "RNP293", "displayName": "Thumsi Area", "reference_id": "RNP320"}, {"nameLocal": "28 Bigaha Play Ground Area", "parentId": "RNP299", "displayName": "28 Bigaha Play Ground Area", "reference_id": "RNP436"}, {"nameLocal": "Bishnunagar", "parentId": "RNP299", "displayName": "Bishnunagar", "reference_id": "RNP437"}, {"nameLocal": "Budhauli Kuna", "parentId": "RNP299", "displayName": "Budhauli Kuna", "reference_id": "RNP419"}, {"nameLocal": "Danda", "parentId": "RNP299", "displayName": "Danda", "reference_id": "RNP322"}, {"nameLocal": "Gyanodaya Chowk", "parentId": "RNP299", "displayName": "Gyanodaya Chowk", "reference_id": "RNP339"}, {"nameLocal": "Hattikhor", "parentId": "RNP299", "displayName": "Hattikhor", "reference_id": "RNP400"}, {"nameLocal": "Kawasoti Football Field Area", "parentId": "RNP299", "displayName": "Kawasoti Football Field Area", "reference_id": "RNP484"}, {"nameLocal": "Magarkot", "parentId": "RNP299", "displayName": "Magarkot", "reference_id": "RNP326"}, {"nameLocal": "Nawadurga Stadium Area", "parentId": "RNP299", "displayName": "Nawadurga Stadium Area", "reference_id": "RNP490"}, {"nameLocal": "Panchaknya Chowk", "parentId": "RNP299", "displayName": "Panchaknya Chowk", "reference_id": "RNP443"}, {"nameLocal": "Ramnagar Chowk", "parentId": "RNP299", "displayName": "Ramnagar Chowk", "reference_id": "RNP371"}, {"nameLocal": "Taruwa", "parentId": "RNP299", "displayName": "Taruwa", "reference_id": "RNP346"}, {"nameLocal": "Thakali Chowk", "parentId": "RNP299", "displayName": "Thakali Chowk", "reference_id": "RNP390"}, {"nameLocal": "Thana Chowk", "parentId": "RNP299", "displayName": "Thana Chowk", "reference_id": "RNP324"}, {"nameLocal": "Arghau Chowk", "parentId": "RNP9", "displayName": "Arghau Chowk", "reference_id": "RNP102"}, {"nameLocal": "Budibazar Chowk", "parentId": "RNP9", "displayName": "Budibazar Chowk", "reference_id": "RNP149"}, {"nameLocal": "Sishuwa chowk", "parentId": "RNP9", "displayName": "Sishuwa chowk", "reference_id": "RNP705"}, {"nameLocal": "Talchowk", "parentId": "RNP9", "displayName": "Talchowk", "reference_id": "RNP236"}, {"nameLocal": "Aashma Nagar", "parentId": "RNP565", "displayName": "Aashma Nagar", "reference_id": "RNP947"}, {"nameLocal": "Arunkhola Bazaar", "parentId": "RNP565", "displayName": "Arunkhola Bazaar", "reference_id": "RNP848"}, {"nameLocal": "Devkota Tole", "parentId": "RNP565", "displayName": "Devkota Tole", "reference_id": "RNP790"}, {"nameLocal": "Dhajaha Tole", "parentId": "RNP565", "displayName": "Dhajaha Tole", "reference_id": "RNP623"}, {"nameLocal": "Madhyabindu Football Ground", "parentId": "RNP565", "displayName": "Madhyabindu Football Ground", "reference_id": "RNP632"}, {"nameLocal": "Mathillo Bhiuran", "parentId": "RNP565", "displayName": "Mathillo Bhiuran", "reference_id": "RNP618"}, {"nameLocal": "Naya Belhani", "parentId": "RNP565", "displayName": "Naya Belhani", "reference_id": "RNP836"}, {"nameLocal": "Shivanagar Bazar", "parentId": "RNP565", "displayName": "Shivanagar Bazar", "reference_id": "RNP845"}, {"nameLocal": "Tareni", "parentId": "RNP565", "displayName": "Tareni", "reference_id": "RNP784"}, {"nameLocal": "Airport Area", "parentId": "R6104486", "displayName": "Airport Area", "reference_id": "R80302175"}, {"nameLocal": "Amarsingh Chowk Area", "parentId": "R6104486", "displayName": "Amarsingh Chowk Area", "reference_id": "R80302161"}, {"nameLocal": "Bagar Area", "parentId": "R6104486", "displayName": "Bagar Area", "reference_id": "R80302155"}, {"nameLocal": "Baglung Buspark Area", "parentId": "R6104486", "displayName": "Baglung Buspark Area", "reference_id": "R80302159"}, {"nameLocal": "Baidam Area", "parentId": "R6104486", "displayName": "Baidam Area", "reference_id": "R80302166"}, {"nameLocal": "Barpatan Area", "parentId": "R6104486", "displayName": "Barpatan Area", "reference_id": "R80302158"}, {"nameLocal": "Buspark Area", "parentId": "R6104486", "displayName": "Buspark Area", "reference_id": "R80302165"}, {"nameLocal": "Chauthe Area", "parentId": "R6104486", "displayName": "Chauthe Area", "reference_id": "R80302169"}, {"nameLocal": "Chipledhunga Area", "parentId": "R6104486", "displayName": "Chipledhunga Area", "reference_id": "R80302173"}, {"nameLocal": "Davis Falls Area", "parentId": "R6104486", "displayName": "Davis Falls Area", "reference_id": "R80302160"}, {"nameLocal": "Fulbaari Area", "parentId": "R6104486", "displayName": "Fulbaari Area", "reference_id": "R80302178"}, {"nameLocal": "Gandaki Hospital Area", "parentId": "R6104486", "displayName": "Gandaki Hospital Area", "reference_id": "R80302163"}, {"nameLocal": "Hemja - Milan Chowk", "parentId": "R6104486", "displayName": "Hemja - Milan Chowk", "reference_id": "RNP1072"}, {"nameLocal": "Himalayan Museum Area", "parentId": "R6104486", "displayName": "Himalayan Museum Area", "reference_id": "R80302153"}, {"nameLocal": "Jogimari", "parentId": "R6104486", "displayName": "Jogimari", "reference_id": "RNP1038"}, {"nameLocal": "kahun Khola Buspark Area", "parentId": "R6104486", "displayName": "kahun Khola Buspark Area", "reference_id": "RNP744"}, {"nameLocal": "Khaltemasina Buspark Area", "parentId": "R6104486", "displayName": "Khaltemasina Buspark Area", "reference_id": "RNP679"}, {"nameLocal": "Lamachaur Area", "parentId": "R6104486", "displayName": "Lamachaur Area", "reference_id": "R80302151"}, {"nameLocal": "Lovely danda", "parentId": "R6104486", "displayName": "Lovely danda", "reference_id": "RNP685"}, {"nameLocal": "Mahatgauda Buspark Area", "parentId": "R6104486", "displayName": "Mahatgauda Buspark Area", "reference_id": "RNP686"}, {"nameLocal": "Mahendrapul Area", "parentId": "R6104486", "displayName": "Mahendrapul Area", "reference_id": "R80302176"}, {"nameLocal": "Malepatan Area", "parentId": "R6104486", "displayName": "Malepatan Area", "reference_id": "R80302162"}, {"nameLocal": "Masbar Area", "parentId": "R6104486", "displayName": "Masbar Area", "reference_id": "R80302172"}, {"nameLocal": "Matepani Area", "parentId": "R6104486", "displayName": "Matepani Area", "reference_id": "R80302154"}, {"nameLocal": "Nadipur Area", "parentId": "R6104486", "displayName": "Nadipur Area", "reference_id": "R80302168"}, {"nameLocal": "Nayabazar Area", "parentId": "R6104486", "displayName": "Nayabazar Area", "reference_id": "R80302171"}, {"nameLocal": "Newroad Area", "parentId": "R6104486", "displayName": "Newroad Area", "reference_id": "R80302156"}, {"nameLocal": "Prashyang Area", "parentId": "R6104486", "displayName": "Prashyang Area", "reference_id": "R80302170"}, {"nameLocal": "Prithvi Chowk", "parentId": "R6104486", "displayName": "Prithvi Chowk", "reference_id": "R80302164"}, {"nameLocal": "Rambazaar Area", "parentId": "R6104486", "displayName": "Rambazaar Area", "reference_id": "R80302177"}, {"nameLocal": "Ramghat Area", "parentId": "R6104486", "displayName": "Ramghat Area", "reference_id": "R80302167"}, {"nameLocal": "Ratna Chowk Area", "parentId": "R6104486", "displayName": "Ratna Chowk Area", "reference_id": "R80302174"}, {"nameLocal": "Simalchaur Area", "parentId": "R6104486", "displayName": "Simalchaur Area", "reference_id": "R80302157"}, {"nameLocal": "Tudikhel Area", "parentId": "R6104486", "displayName": "Tudikhel Area", "reference_id": "R80302152"}, {"nameLocal": "Yamdi Pool", "parentId": "R6104486", "displayName": "Yamdi Pool", "reference_id": "RNP955"}, {"nameLocal": "Belchautara", "parentId": "RNP553", "displayName": "Belchautara", "reference_id": "RNP696"}, {"nameLocal": "Dhor Phedi Area", "parentId": "RNP553", "displayName": "Dhor Phedi Area", "reference_id": "RNP785"}, {"nameLocal": "Dulegaunda Bazaar", "parentId": "RNP553", "displayName": "Dulegaunda Bazaar", "reference_id": "RNP786"}, {"nameLocal": "Khairenitar Bazar", "parentId": "RNP553", "displayName": "Khairenitar Bazar", "reference_id": "RNP815"}, {"nameLocal": "Nayapul", "parentId": "RNP553", "displayName": "Nayapul", "reference_id": "RNP941"}, {"nameLocal": "Saulibazzar", "parentId": "RNP553", "displayName": "Saulibazzar", "reference_id": "RNP797"}, {"nameLocal": "Surya Nepal Factory Area", "parentId": "RNP553", "displayName": "Surya Nepal Factory Area", "reference_id": "RNP734"}, {"nameLocal": "Khatrithati", "parentId": "RNP574", "displayName": "Khatrithati", "reference_id": "RNP1003"}, {"nameLocal": "Lamjung Campus Area", "parentId": "RNP574", "displayName": "Lamjung Campus Area", "reference_id": "RNP783"}, {"nameLocal": "Milan Chowk", "parentId": "RNP574", "displayName": "Milan Chowk", "reference_id": "RNP840"}, {"nameLocal": "Suidibar Bus Park Area", "parentId": "RNP574", "displayName": "Suidibar Bus Park Area", "reference_id": "RNP633"}, {"nameLocal": "Bhakunde Chowk", "parentId": "RNP579", "displayName": "Bhakunde Chowk", "reference_id": "RNP825"}, {"nameLocal": "Bhakunde Covered Hall Area", "parentId": "RNP579", "displayName": "Bhakunde Covered Hall Area", "reference_id": "RNP753"}, {"nameLocal": "Buddha Tole", "parentId": "RNP579", "displayName": "Buddha Tole", "reference_id": "RNP799"}, {"nameLocal": "Shiva Oil Area", "parentId": "RNP579", "displayName": "Shiva Oil Area", "reference_id": "RNP808"}, {"nameLocal": "Waling Bus Park Area", "parentId": "RNP579", "displayName": "Waling Bus Park Area", "reference_id": "RNP599"}, {"nameLocal": "Waling Multiple Campus Area", "parentId": "RNP579", "displayName": "Waling Multiple Campus Area", "reference_id": "RNP924"}, {"nameLocal": "WCCI Chowk", "parentId": "RNP579", "displayName": "WCCI Chowk", "reference_id": "RNP962"}, {"nameLocal": "Bahunichaur", "parentId": "RNP545", "displayName": "Bahunichaur", "reference_id": "RNP611"}, {"nameLocal": "Chhinchu", "parentId": "RNP545", "displayName": "Chhinchu", "reference_id": "RNP804"}, {"nameLocal": "Jahare Bazaar", "parentId": "RNP545", "displayName": "Jahare Bazaar", "reference_id": "RNP1025"}, {"nameLocal": "Ramghat", "parentId": "RNP545", "displayName": "Ramghat", "reference_id": "RNP721"}, {"nameLocal": "Army Camp Area", "parentId": "R4586369", "displayName": "Army Camp Area", "reference_id": "R80317694"}, {"nameLocal": "Dhuliyabit Area", "parentId": "R4586369", "displayName": "Dhuliyabit Area", "reference_id": "R80317698"}, {"nameLocal": "Kakrebihar Area", "parentId": "R4586369", "displayName": "Kakrebihar Area", "reference_id": "R80317696"}, {"nameLocal": "Mangalgadhi Chowk Area", "parentId": "R4586369", "displayName": "Mangalgadhi Chowk Area", "reference_id": "R80317699"}, {"nameLocal": "Radio Nepal Area", "parentId": "R4586369", "displayName": "Radio Nepal Area", "reference_id": "R80317695"}, {"nameLocal": "Surkhet Hospital Area", "parentId": "R4586369", "displayName": "Surkhet Hospital Area", "reference_id": "R80317693"}, {"nameLocal": "Uttarganga Area", "parentId": "R4586369", "displayName": "Uttarganga Area", "reference_id": "R80317697"}, {"nameLocal": "Mehelkuna Hospital Area", "parentId": "RNP575", "displayName": "Mehelkuna Hospital Area", "reference_id": "RNP745"}, {"nameLocal": "Mehulkuna Bazaar", "parentId": "RNP575", "displayName": "Mehulkuna Bazaar", "reference_id": "RNP871"}, {"nameLocal": "Dashrathpur", "parentId": "RNP582", "displayName": "Dashrathpur", "reference_id": "RNP892"}, {"nameLocal": "Salli Bazar", "parentId": "RNP582", "displayName": "Salli Bazar", "reference_id": "RNP755"}, {"nameLocal": "4 Number Chowk", "parentId": "RNP558", "displayName": "4 Number Chowk", "reference_id": "RNP860"}, {"nameLocal": "Bangain", "parentId": "RNP558", "displayName": "Bangain", "reference_id": "RNP913"}, {"nameLocal": "Bodegaun Chowk", "parentId": "RNP558", "displayName": "Bodegaun Chowk", "reference_id": "RNP728"}, {"nameLocal": "Chappar Gau", "parentId": "RNP558", "displayName": "Chappar Gau", "reference_id": "RNP781"}, {"nameLocal": "Dhaneshpur", "parentId": "RNP558", "displayName": "Dhaneshpur", "reference_id": "RNP769"}, {"nameLocal": "Gajehada Bus Stop Area", "parentId": "RNP558", "displayName": "Gajehada Bus Stop Area", "reference_id": "RNP933"}, {"nameLocal": "Jhanda", "parentId": "RNP558", "displayName": "Jhanda", "reference_id": "RNP646"}, {"nameLocal": "Khane Pani Office Area", "parentId": "RNP558", "displayName": "Khane Pani Office Area", "reference_id": "RNP694"}, {"nameLocal": "Koili Bangai", "parentId": "RNP558", "displayName": "Koili Bangai", "reference_id": "RNP699"}, {"nameLocal": "Manoharpur", "parentId": "RNP558", "displayName": "Manoharpur", "reference_id": "RNP606"}, {"nameLocal": "Motipur - Banganga", "parentId": "RNP558", "displayName": "Motipur - Banganga", "reference_id": "RNP937"}, {"nameLocal": "Pipara Bazaar", "parentId": "RNP558", "displayName": "Pipara Bazaar", "reference_id": "RNP847"}, {"nameLocal": "Supa Deurali Mandir - Banganga", "parentId": "RNP558", "displayName": "Supa Deurali Mandir - Banganga", "reference_id": "RNP654"}, {"nameLocal": "Bardaghat Bus Stop Area", "parentId": "RNP578", "displayName": "Bardaghat Bus Stop Area", "reference_id": "RNP1076"}, {"nameLocal": "Basa Basahi Chowk", "parentId": "RNP578", "displayName": "Basa Basahi Chowk", "reference_id": "RNP690"}, {"nameLocal": "Chisapani Hospital Area", "parentId": "RNP578", "displayName": "Chisapani Hospital Area", "reference_id": "RNP602"}, {"nameLocal": "Jahada", "parentId": "RNP578", "displayName": "Jahada", "reference_id": "RNP714"}, {"nameLocal": "Jamuniya", "parentId": "RNP578", "displayName": "Jamuniya", "reference_id": "RNP969"}, {"nameLocal": "Makar", "parentId": "RNP578", "displayName": "Makar", "reference_id": "RNP673"}, {"nameLocal": "Mohini Cinema Hall Area", "parentId": "RNP578", "displayName": "Mohini Cinema Hall Area", "reference_id": "RNP650"}, {"nameLocal": "Panchanagar", "parentId": "RNP578", "displayName": "Panchanagar", "reference_id": "RNP609"}, {"nameLocal": "Upahar Nagar Park Area", "parentId": "RNP578", "displayName": "Upahar Nagar Park Area", "reference_id": "RNP1006"}, {"nameLocal": "Belbas", "parentId": "R4590927", "displayName": "Belbas", "reference_id": "RNP223"}, {"nameLocal": "Buddhanagar", "parentId": "R4590927", "displayName": "Buddhanagar", "reference_id": "RNP239"}, {"nameLocal": "Buspark Area", "parentId": "R4590927", "displayName": "Buspark Area", "reference_id": "R80302188"}, {"nameLocal": "Butwal Campus Area", "parentId": "R4590927", "displayName": "Butwal Campus Area", "reference_id": "R80302181"}, {"nameLocal": "Butwal Industrial Area", "parentId": "R4590927", "displayName": "Butwal Industrial Area", "reference_id": "R80302184"}, {"nameLocal": "Chauraha", "parentId": "R4590927", "displayName": "Chauraha", "reference_id": "RNP146"}, {"nameLocal": "Deep Nagar", "parentId": "R4590927", "displayName": "Deep Nagar", "reference_id": "R80302192"}, {"nameLocal": "Devinagar", "parentId": "R4590927", "displayName": "Devinagar", "reference_id": "R80302193"}, {"nameLocal": "Fulbari", "parentId": "R4590927", "displayName": "Fulbari", "reference_id": "RNP38"}, {"nameLocal": "Golpark", "parentId": "R4590927", "displayName": "Golpark", "reference_id": "RNP246"}, {"nameLocal": "Haatbazaar Area", "parentId": "R4590927", "displayName": "Haatbazaar Area", "reference_id": "R80302196"}, {"nameLocal": "Kalika Nagar", "parentId": "R4590927", "displayName": "Kalika Nagar", "reference_id": "R80302191"}, {"nameLocal": "Laxminagar", "parentId": "R4590927", "displayName": "Laxminagar", "reference_id": "RNP182"}, {"nameLocal": "Maina Bagar Area", "parentId": "R4590927", "displayName": "Maina Bagar Area", "reference_id": "R80302190"}, {"nameLocal": "Majuwa", "parentId": "R4590927", "displayName": "Majuwa", "reference_id": "RNP151"}, {"nameLocal": "Milan Chowk", "parentId": "R4590927", "displayName": "Milan Chowk", "reference_id": "RNP129"}, {"nameLocal": "Motipur Area", "parentId": "R4590927", "displayName": "Motipur Area", "reference_id": "RNP867"}, {"nameLocal": "Nayagaun", "parentId": "R4590927", "displayName": "Nayagaun", "reference_id": "RNP112"}, {"nameLocal": "Nepalgunj Road Area", "parentId": "R4590927", "displayName": "Nepalgunj Road Area", "reference_id": "R80302187"}, {"nameLocal": "Ramnagar", "parentId": "R4590927", "displayName": "Ramnagar", "reference_id": "R80302183"}, {"nameLocal": "Semlar Area", "parentId": "R4590927", "displayName": "Semlar Area", "reference_id": "RNP695"}, {"nameLocal": "Sukhha Nagar", "parentId": "R4590927", "displayName": "Sukhha Nagar", "reference_id": "R80302197"}, {"nameLocal": "Tamnagar", "parentId": "R4590927", "displayName": "Tamnagar", "reference_id": "RNP174"}, {"nameLocal": "Traffic Chowk Area", "parentId": "R4590927", "displayName": "Traffic Chowk Area", "reference_id": "R80302189"}, {"nameLocal": "Yogi Kuti Area", "parentId": "R4590927", "displayName": "Yogi Kuti Area", "reference_id": "R80302180"}, {"nameLocal": "Bharatpur Area", "parentId": "RNP298", "displayName": "Bharatpur Area", "reference_id": "RNP425"}, {"nameLocal": "Chaughera Area", "parentId": "RNP298", "displayName": "Chaughera Area", "reference_id": "RNP423"}, {"nameLocal": "Ghorahi Buspark Area", "parentId": "RNP298", "displayName": "Ghorahi Buspark Area", "reference_id": "RNP520"}, {"nameLocal": "Nayabazar Area", "parentId": "RNP298", "displayName": "Nayabazar Area", "reference_id": "RNP421"}, {"nameLocal": "Newroad Area", "parentId": "RNP298", "displayName": "Newroad Area", "reference_id": "RNP403"}, {"nameLocal": "Ratanpur Area", "parentId": "RNP298", "displayName": "Ratanpur Area", "reference_id": "RNP441"}, {"nameLocal": "Sahidgate Area", "parentId": "RNP298", "displayName": "Sahidgate Area", "reference_id": "RNP519"}, {"nameLocal": "Traffic Chowk Area", "parentId": "RNP298", "displayName": "Traffic Chowk Area", "reference_id": "RNP512"}, {"nameLocal": "Tulsipur Chowk Area", "parentId": "RNP298", "displayName": "Tulsipur Chowk Area", "reference_id": "RNP359"}, {"nameLocal": "Bahini Chowk Area", "parentId": "RNP288", "displayName": "Bahini Chowk Area", "reference_id": "RNP429"}, {"nameLocal": "BP Chowk Area", "parentId": "RNP288", "displayName": "BP Chowk Area", "reference_id": "RNP374"}, {"nameLocal": "Ganeshpur Area", "parentId": "RNP288", "displayName": "Ganeshpur Area", "reference_id": "RNP482"}, {"nameLocal": "Parseni Area", "parentId": "RNP288", "displayName": "Parseni Area", "reference_id": "RNP453"}, {"nameLocal": "Shitalpur Area", "parentId": "RNP288", "displayName": "Shitalpur Area", "reference_id": "RNP373"}, {"nameLocal": "Tarigaun Area", "parentId": "RNP288", "displayName": "Tarigaun Area", "reference_id": "RNP314"}, {"nameLocal": "Tulsipur Buspark Area", "parentId": "RNP288", "displayName": "Tulsipur Buspark Area", "reference_id": "RNP357"}, {"nameLocal": "Bhaluhi", "parentId": "RNP14", "displayName": "Bhaluhi", "reference_id": "RNP217"}, {"nameLocal": "Charange", "parentId": "RNP14", "displayName": "Charange", "reference_id": "RNP42"}, {"nameLocal": "Ghodaha", "parentId": "RNP14", "displayName": "Ghodaha", "reference_id": "RNP283"}, {"nameLocal": "Khaireni", "parentId": "RNP14", "displayName": "Khaireni", "reference_id": "RNP100"}, {"nameLocal": "Sitalnagar", "parentId": "RNP14", "displayName": "Sitalnagar", "reference_id": "RNP269"}, {"nameLocal": "Babanagar", "parentId": "RNP539", "displayName": "Babanagar", "reference_id": "RNP751"}, {"nameLocal": "Chappargaudi", "parentId": "RNP539", "displayName": "Chappargaudi", "reference_id": "RNP619"}, {"nameLocal": "Happy Water Park Area", "parentId": "RNP539", "displayName": "Happy Water Park Area", "reference_id": "RNP794"}, {"nameLocal": "Kaushila Nagar", "parentId": "RNP539", "displayName": "Kaushila Nagar", "reference_id": "RNP843"}, {"nameLocal": "Kohalpur Chowk", "parentId": "RNP539", "displayName": "Kohalpur Chowk", "reference_id": "RNP974"}, {"nameLocal": "Kohalpur Police Beat No 1 Area", "parentId": "RNP539", "displayName": "Kohalpur Police Beat No 1 Area", "reference_id": "RNP1092"}, {"nameLocal": "Madan Chowk", "parentId": "RNP539", "displayName": "Madan Chowk", "reference_id": "RNP1060"}, {"nameLocal": "Manakamana Chowk", "parentId": "RNP539", "displayName": "Manakamana Chowk", "reference_id": "RNP763"}, {"nameLocal": "Nepalgunj College Area", "parentId": "RNP539", "displayName": "Nepalgunj College Area", "reference_id": "RNP698"}, {"nameLocal": "Nepalgunj Medical College Area", "parentId": "RNP539", "displayName": "Nepalgunj Medical College Area", "reference_id": "RNP1069"}, {"nameLocal": "Siddha Nagar", "parentId": "RNP539", "displayName": "Siddha Nagar", "reference_id": "RNP621"}, {"nameLocal": "Bangaun", "parentId": "RNP541", "displayName": "Bangaun", "reference_id": "RNP822"}, {"nameLocal": "Bankatta", "parentId": "RNP541", "displayName": "Bankatta", "reference_id": "RNP882"}, {"nameLocal": "Deukhuri Campus Area", "parentId": "RNP541", "displayName": "Deukhuri Campus Area", "reference_id": "RNP958"}, {"nameLocal": "Gurjihawa", "parentId": "RNP541", "displayName": "Gurjihawa", "reference_id": "RNP970"}, {"nameLocal": "Lamahi Bus Park Area", "parentId": "RNP541", "displayName": "Lamahi Bus Park Area", "reference_id": "RNP701"}, {"nameLocal": "Lamahi Municipality Office Area", "parentId": "RNP541", "displayName": "Lamahi Municipality Office Area", "reference_id": "RNP760"}, {"nameLocal": "Namai", "parentId": "RNP541", "displayName": "Namai", "reference_id": "RNP742"}, {"nameLocal": "Narti", "parentId": "RNP541", "displayName": "Narti", "reference_id": "RNP1037"}, {"nameLocal": "Shantinagar", "parentId": "RNP541", "displayName": "Shantinagar", "reference_id": "RNP764"}, {"nameLocal": "Lakshmipur", "parentId": "RNP17", "displayName": "Lakshmipur", "reference_id": "RNP261"}, {"nameLocal": "Lumbini Bikas Kosh Area", "parentId": "RNP17", "displayName": "Lumbini Bikas Kosh Area", "reference_id": "RNP280"}, {"nameLocal": "Madhubani", "parentId": "RNP17", "displayName": "Madhubani", "reference_id": "RNP138"}, {"nameLocal": "Mahajidiya", "parentId": "RNP17", "displayName": "Mahajidiya", "reference_id": "RNP35"}, {"nameLocal": "Padariya", "parentId": "RNP17", "displayName": "Padariya", "reference_id": "RNP252"}, {"nameLocal": "Tenuhawa", "parentId": "RNP17", "displayName": "Tenuhawa", "reference_id": "RNP229"}, {"nameLocal": "Adarsh Nagar Area", "parentId": "RNP289", "displayName": "Adarsh Nagar Area", "reference_id": "RNP513"}, {"nameLocal": "Basudevpur Area", "parentId": "RNP289", "displayName": "Basudevpur Area", "reference_id": "RNP433"}, {"nameLocal": "Belaspur Area", "parentId": "RNP289", "displayName": "Belaspur Area", "reference_id": "RNP492"}, {"nameLocal": "Bhawanipur Area", "parentId": "RNP289", "displayName": "Bhawanipur Area", "reference_id": "RNP496"}, {"nameLocal": "BP Chowk Area", "parentId": "RNP289", "displayName": "BP Chowk Area", "reference_id": "RNP464"}, {"nameLocal": "Dhamboji Area", "parentId": "RNP289", "displayName": "Dhamboji Area", "reference_id": "RNP442"}, {"nameLocal": "Indrapur Area", "parentId": "RNP289", "displayName": "Indrapur Area", "reference_id": "RNP354"}, {"nameLocal": "Jaisapur Area", "parentId": "RNP289", "displayName": "Jaisapur Area", "reference_id": "RNP351"}, {"nameLocal": "Khaskarkado Area", "parentId": "RNP289", "displayName": "Khaskarkado Area", "reference_id": "RNP395"}, {"nameLocal": "Manikapur Area", "parentId": "RNP289", "displayName": "Manikapur Area", "reference_id": "RNP486"}, {"nameLocal": "Nepalgunj Buspark Area", "parentId": "RNP289", "displayName": "Nepalgunj Buspark Area", "reference_id": "RNP452"}, {"nameLocal": "Prasapur Area", "parentId": "RNP289", "displayName": "Prasapur Area", "reference_id": "RNP408"}, {"nameLocal": "Puraina Area", "parentId": "RNP289", "displayName": "Puraina Area", "reference_id": "RNP396"}, {"nameLocal": "Udayapur Area", "parentId": "RNP289", "displayName": "Udayapur Area", "reference_id": "RNP393"}, {"nameLocal": "Bhumahi", "parentId": "RNP21", "displayName": "Bhumahi", "reference_id": "RNP136"}, {"nameLocal": "Buddha Chowk", "parentId": "RNP21", "displayName": "Buddha Chowk", "reference_id": "RNP287"}, {"nameLocal": "Durga Mandir", "parentId": "RNP21", "displayName": "Durga Mandir", "reference_id": "RNP265"}, {"nameLocal": "Manari", "parentId": "RNP21", "displayName": "Manari", "reference_id": "RNP207"}, {"nameLocal": "Parasi Bus Park Area", "parentId": "RNP21", "displayName": "Parasi Bus Park Area", "reference_id": "RNP82"}, {"nameLocal": "Ramagrama Relic Stupa Area", "parentId": "RNP21", "displayName": "Ramagrama Relic Stupa Area", "reference_id": "RNP262"}, {"nameLocal": "Ramgram Municipality Office Area", "parentId": "RNP21", "displayName": "Ramgram Municipality Office Area", "reference_id": "RNP172"}, {"nameLocal": "Sukrauli", "parentId": "RNP21", "displayName": "Sukrauli", "reference_id": "RNP196"}, {"nameLocal": "Ujaini Chowk", "parentId": "RNP21", "displayName": "Ujaini Chowk", "reference_id": "RNP270"}, {"nameLocal": "Basgadi Area", "parentId": "RNP12", "displayName": "Basgadi Area", "reference_id": "RNP862"}, {"nameLocal": "Buddhanagar Area", "parentId": "RNP12", "displayName": "Buddhanagar Area", "reference_id": "RNP935"}, {"nameLocal": "Murgiya", "parentId": "RNP12", "displayName": "Murgiya", "reference_id": "RNP199"}, {"nameLocal": "Ramapur Area", "parentId": "RNP12", "displayName": "Ramapur Area", "reference_id": "RNP890"}, {"nameLocal": "Ranibagiya", "parentId": "RNP12", "displayName": "Ranibagiya", "reference_id": "RNP32"}, {"nameLocal": "Saljhandi Area", "parentId": "RNP12", "displayName": "Saljhandi Area", "reference_id": "RNP981"}, {"nameLocal": "Chanauta Bus Stop Area", "parentId": "RNP555", "displayName": "Chanauta Bus Stop Area", "reference_id": "RNP1026"}, {"nameLocal": "Halla Nagar", "parentId": "RNP555", "displayName": "Halla Nagar", "reference_id": "RNP620"}, {"nameLocal": "Jawabhari", "parentId": "RNP555", "displayName": "Jawabhari", "reference_id": "RNP872"}, {"nameLocal": "Kharendrapur", "parentId": "RNP555", "displayName": "Kharendrapur", "reference_id": "RNP1036"}, {"nameLocal": "Laxmi Tole", "parentId": "RNP555", "displayName": "Laxmi Tole", "reference_id": "RNP828"}, {"nameLocal": "Samiti Chowk", "parentId": "RNP555", "displayName": "Samiti Chowk", "reference_id": "RNP923"}, {"nameLocal": "Shivapur Haat Bazaar", "parentId": "RNP555", "displayName": "Shivapur Haat Bazaar", "reference_id": "RNP675"}, {"nameLocal": "Bhairahawa Airport Area", "parentId": "R80301931", "displayName": "Bhairahawa Airport Area", "reference_id": "R80314415"}, {"nameLocal": "Bhairahawa Buspark Area", "parentId": "R80301931", "displayName": "Bhairahawa Buspark Area", "reference_id": "R80314418"}, {"nameLocal": "Bhairahawa Customs Area", "parentId": "R80301931", "displayName": "Bhairahawa Customs Area", "reference_id": "R80314416"}, {"nameLocal": "Brishapati College Area", "parentId": "R80301931", "displayName": "Brishapati College Area", "reference_id": "R80314424"}, {"nameLocal": "Buddha Chowk Area", "parentId": "R80301931", "displayName": "Buddha Chowk Area", "reference_id": "R80314422"}, {"nameLocal": "Darkachua Area", "parentId": "R80301931", "displayName": "Darkachua Area", "reference_id": "R80314417"}, {"nameLocal": "Devkota Chowk Area", "parentId": "R80301931", "displayName": "Devkota Chowk Area", "reference_id": "R80314419"}, {"nameLocal": "Durga Colony", "parentId": "R80301931", "displayName": "Durga Colony", "reference_id": "R80314421"}, {"nameLocal": "Electricity Office Area", "parentId": "R80301931", "displayName": "Electricity Office Area", "reference_id": "R80314423"}, {"nameLocal": "Milan Chowk Area", "parentId": "R80301931", "displayName": "Milan Chowk Area", "reference_id": "R80314420"}, {"nameLocal": "Ranigaun Area", "parentId": "R80301931", "displayName": "Ranigaun Area", "reference_id": "R6668289"}, {"nameLocal": "Universal College Area", "parentId": "R80301931", "displayName": "Universal College Area", "reference_id": "R80314425"}, {"nameLocal": "Badera", "parentId": "RNP15", "displayName": "Badera", "reference_id": "RNP24"}, {"nameLocal": "Bankatti", "parentId": "RNP15", "displayName": "Bankatti", "reference_id": "RNP253"}, {"nameLocal": "Jyamire", "parentId": "RNP15", "displayName": "Jyamire", "reference_id": "RNP150"}, {"nameLocal": "Kerbani", "parentId": "RNP15", "displayName": "Kerbani", "reference_id": "RNP257"}, {"nameLocal": "Mahakavi Devkota Campus Area", "parentId": "RNP15", "displayName": "Mahakavi Devkota Campus Area", "reference_id": "RNP175"}, {"nameLocal": "Sunwal Bus-Station Area", "parentId": "RNP15", "displayName": "Sunwal Bus-Station Area", "reference_id": "RNP79"}, {"nameLocal": "Sunwal Church Area", "parentId": "RNP15", "displayName": "Sunwal Church Area", "reference_id": "RNP226"}, {"nameLocal": "Swathi Area", "parentId": "RNP15", "displayName": "Swathi Area", "reference_id": "RNP78"}, {"nameLocal": "Aishworya School Area", "parentId": "RNP584", "displayName": "Aishworya School Area", "reference_id": "RNP987"}, {"nameLocal": "Bartung Bus Stop Area", "parentId": "RNP584", "displayName": "Bartung Bus Stop Area", "reference_id": "RNP735"}, {"nameLocal": "Hotel Srinagar Area", "parentId": "RNP584", "displayName": "Hotel Srinagar Area", "reference_id": "RNP910"}, {"nameLocal": "Lumbini Medical College Area", "parentId": "RNP584", "displayName": "Lumbini Medical College Area", "reference_id": "RNP929"}, {"nameLocal": "Mehaldhara", "parentId": "RNP584", "displayName": "Mehaldhara", "reference_id": "RNP720"}, {"nameLocal": "Narayansthan Pond Area", "parentId": "RNP584", "displayName": "Narayansthan Pond Area", "reference_id": "RNP759"}, {"nameLocal": "Palpa Eye Hospital Area", "parentId": "RNP584", "displayName": "Palpa Eye Hospital Area", "reference_id": "RNP729"}, {"nameLocal": "Palpa Hospital Area", "parentId": "RNP584", "displayName": "Palpa Hospital Area", "reference_id": "RNP791"}, {"nameLocal": "Taksar Tole", "parentId": "RNP584", "displayName": "Taksar Tole", "reference_id": "RNP877"}, {"nameLocal": "Tansen Bus Park Area", "parentId": "RNP584", "displayName": "Tansen Bus Park Area", "reference_id": "RNP906"}, {"nameLocal": "Tansen Multiple Campus Area", "parentId": "RNP584", "displayName": "Tansen Multiple Campus Area", "reference_id": "RNP895"}, {"nameLocal": "United Mission Hospital Area", "parentId": "RNP584", "displayName": "United Mission Hospital Area", "reference_id": "RNP653"}, {"nameLocal": "Bethari", "parentId": "RNP18", "displayName": "Bethari", "reference_id": "RNP91"}, {"nameLocal": "Jamohara Area", "parentId": "RNP18", "displayName": "Jamohara Area", "reference_id": "RNP118"}, {"nameLocal": "Kapilvastu Multiple Campus", "parentId": "RNP18", "displayName": "Kapilvastu Multiple Campus", "reference_id": "RNP176"}, {"nameLocal": "Kapilvastu Museum", "parentId": "RNP18", "displayName": "Kapilvastu Museum", "reference_id": "RNP190"}, {"nameLocal": "Taulihawa Bus Station", "parentId": "RNP18", "displayName": "Taulihawa Bus Station", "reference_id": "RNP235"}, {"nameLocal": "Taulihawa Haat Bazaar", "parentId": "RNP18", "displayName": "Taulihawa Haat Bazaar", "reference_id": "RNP195"}, {"nameLocal": "Tilaurakot", "parentId": "RNP18", "displayName": "Tilaurakot", "reference_id": "RNP43"}, {"nameLocal": "12 number Area", "parentId": "RNP11", "displayName": "12 number Area", "reference_id": "RNP1093"}, {"nameLocal": "4 Number Area", "parentId": "RNP11", "displayName": "4 Number Area", "reference_id": "RNP737"}, {"nameLocal": "Banbatika", "parentId": "RNP11", "displayName": "Banbatika", "reference_id": "RNP161"}, {"nameLocal": "Bhalwari", "parentId": "RNP11", "displayName": "Bhalwari", "reference_id": "RNP230"}, {"nameLocal": "Bihuli", "parentId": "RNP11", "displayName": "Bihuli", "reference_id": "RNP125"}, {"nameLocal": "Dinganagar", "parentId": "RNP11", "displayName": "Dinganagar", "reference_id": "RNP202"}, {"nameLocal": "Drivertol", "parentId": "RNP11", "displayName": "Drivertol", "reference_id": "RNP220"}, {"nameLocal": "Janakinagar", "parentId": "RNP11", "displayName": "Janakinagar", "reference_id": "RNP85"}, {"nameLocal": "Kotihawa", "parentId": "RNP11", "displayName": "Kotihawa", "reference_id": "RNP124"}, {"nameLocal": "Manglapur", "parentId": "RNP11", "displayName": "Manglapur", "reference_id": "RNP57"}, {"nameLocal": "Manigram", "parentId": "RNP11", "displayName": "Manigram", "reference_id": "RNP159"}, {"nameLocal": "Nayamil", "parentId": "RNP11", "displayName": "Nayamil", "reference_id": "RNP255"}, {"nameLocal": "OSHO", "parentId": "RNP11", "displayName": "OSHO", "reference_id": "RNP198"}, {"nameLocal": "Pathardada", "parentId": "RNP11", "displayName": "Pathardada", "reference_id": "RNP77"}, {"nameLocal": "Sakhwani", "parentId": "RNP11", "displayName": "Sakhwani", "reference_id": "RNP114"}, {"nameLocal": "Shankhanagar", "parentId": "RNP11", "displayName": "Shankhanagar", "reference_id": "RNP68"}, {"nameLocal": "Sitarice Mill", "parentId": "RNP11", "displayName": "Sitarice Mill", "reference_id": "RNP135"}, {"nameLocal": "Bardibas Bus Stop Area", "parentId": "RNP23", "displayName": "Bardibas Bus Stop Area", "reference_id": "RNP154"}, {"nameLocal": "Bardibas Hospital Area", "parentId": "RNP23", "displayName": "Bardibas Hospital Area", "reference_id": "RNP163"}, {"nameLocal": "Baridibas", "parentId": "RNP23", "displayName": "Baridibas", "reference_id": "RNP214"}, {"nameLocal": "Bishwakarma Mandir Area", "parentId": "RNP23", "displayName": "Bishwakarma Mandir Area", "reference_id": "RNP206"}, {"nameLocal": "Dhalkebar", "parentId": "RNP23", "displayName": "Dhalkebar", "reference_id": "RNP137"}, {"nameLocal": "Gauridanda", "parentId": "RNP23", "displayName": "Gauridanda", "reference_id": "RNP171"}, {"nameLocal": "Lalgadh", "parentId": "RNP23", "displayName": "Lalgadh", "reference_id": "RNP86"}, {"nameLocal": "Dhabouli", "parentId": "RNP576", "displayName": "Dhabouli", "reference_id": "RNP738"}, {"nameLocal": "Ekarahi", "parentId": "RNP576", "displayName": "Ekarahi", "reference_id": "RNP704"}, {"nameLocal": "Karmahi", "parentId": "RNP576", "displayName": "Karmahi", "reference_id": "RNP857"}, {"nameLocal": "Thadi Jhija", "parentId": "RNP576", "displayName": "Thadi Jhija", "reference_id": "RNP1002"}, {"nameLocal": "Tinkauriya Chowk", "parentId": "RNP576", "displayName": "Tinkauriya Chowk", "reference_id": "RNP903"}, {"nameLocal": "Tinkouriya Bazaar", "parentId": "RNP576", "displayName": "Tinkouriya Bazaar", "reference_id": "RNP1032"}, {"nameLocal": "Adarshnagar Area", "parentId": "RNP295", "displayName": "Adarshnagar Area", "reference_id": "RNP471"}, {"nameLocal": "Birgunj Buspark Area", "parentId": "RNP295", "displayName": "Birgunj Buspark Area", "reference_id": "RNP398"}, {"nameLocal": "Birgunj Customs Area", "parentId": "RNP295", "displayName": "Birgunj Customs Area", "reference_id": "RNP511"}, {"nameLocal": "Birta Area", "parentId": "RNP295", "displayName": "Birta Area", "reference_id": "RNP315"}, {"nameLocal": "Brahma Chowk Area", "parentId": "RNP295", "displayName": "Brahma Chowk Area", "reference_id": "RNP497"}, {"nameLocal": "Chhapkaiya Area", "parentId": "RNP295", "displayName": "Chhapkaiya Area", "reference_id": "RNP352"}, {"nameLocal": "Chitragupt Area", "parentId": "RNP295", "displayName": "Chitragupt Area", "reference_id": "RNP450"}, {"nameLocal": "Gahawa Mai Area", "parentId": "RNP295", "displayName": "Gahawa Mai Area", "reference_id": "RNP463"}, {"nameLocal": "Ghadiharwa Pokhari Area", "parentId": "RNP295", "displayName": "Ghadiharwa Pokhari Area", "reference_id": "RNP457"}, {"nameLocal": "Ghantaghar Area", "parentId": "RNP295", "displayName": "Ghantaghar Area", "reference_id": "RNP389"}, {"nameLocal": "Minabazaar Area", "parentId": "RNP295", "displayName": "Minabazaar Area", "reference_id": "RNP526"}, {"nameLocal": "Murali Area", "parentId": "RNP295", "displayName": "Murali Area", "reference_id": "RNP370"}, {"nameLocal": "Nagwa Pokhari", "parentId": "RNP295", "displayName": "Nagwa Pokhari", "reference_id": "RNP444"}, {"nameLocal": "New ICP Dryport", "parentId": "RNP295", "displayName": "New ICP Dryport", "reference_id": "RNP365"}, {"nameLocal": "Powerhouse Area", "parentId": "RNP295", "displayName": "Powerhouse Area", "reference_id": "RNP310"}, {"nameLocal": "Pratima Chowk Area", "parentId": "RNP295", "displayName": "Pratima Chowk Area", "reference_id": "RNP537"}, {"nameLocal": "Radhemai Area", "parentId": "RNP295", "displayName": "Radhemai Area", "reference_id": "RNP375"}, {"nameLocal": "Ranighat Area", "parentId": "RNP295", "displayName": "Ranighat Area", "reference_id": "RNP360"}, {"nameLocal": "Resham Kothi Area", "parentId": "RNP295", "displayName": "Resham Kothi Area", "reference_id": "RNP325"}, {"nameLocal": "Shreepur Area", "parentId": "RNP295", "displayName": "Shreepur Area", "reference_id": "RNP348"}, {"nameLocal": "Durga Chowk", "parentId": "RNP22", "displayName": "Durga Chowk", "reference_id": "RNP121"}, {"nameLocal": "Laxminiya", "parentId": "RNP22", "displayName": "Laxminiya", "reference_id": "RNP95"}, {"nameLocal": "Police Station Area", "parentId": "RNP22", "displayName": "Police Station Area", "reference_id": "RNP48"}, {"nameLocal": "Ramdaiya", "parentId": "RNP22", "displayName": "Ramdaiya", "reference_id": "RNP108"}, {"nameLocal": "Sakhuwa Bazar", "parentId": "RNP22", "displayName": "Sakhuwa Bazar", "reference_id": "RNP212"}, {"nameLocal": "Sapahi", "parentId": "RNP22", "displayName": "Sapahi", "reference_id": "RNP213"}, {"nameLocal": "Bhiman Chowk", "parentId": "RNP586", "displayName": "Bhiman Chowk", "reference_id": "RNP778"}, {"nameLocal": "Dhanushadham Municipality Office Area", "parentId": "RNP586", "displayName": "Dhanushadham Municipality Office Area", "reference_id": "RNP718"}, {"nameLocal": "Dharapani Chowk", "parentId": "RNP586", "displayName": "Dharapani Chowk", "reference_id": "RNP643"}, {"nameLocal": "Govindapur", "parentId": "RNP586", "displayName": "Govindapur", "reference_id": "RNP1067"}, {"nameLocal": "Kisanpur", "parentId": "RNP586", "displayName": "Kisanpur", "reference_id": "RNP858"}, {"nameLocal": "Kumhara", "parentId": "RNP586", "displayName": "Kumhara", "reference_id": "RNP837"}, {"nameLocal": "Tejnagar", "parentId": "RNP586", "displayName": "Tejnagar", "reference_id": "RNP898"}, {"nameLocal": "Yagyabhumi", "parentId": "RNP586", "displayName": "Yagyabhumi", "reference_id": "RNP712"}, {"nameLocal": "Campus Area", "parentId": "RNP570", "displayName": "Campus Area", "reference_id": "RNP982"}, {"nameLocal": "Golbazar Main Chowk", "parentId": "RNP570", "displayName": "Golbazar Main Chowk", "reference_id": "RNP597"}, {"nameLocal": "Mahajan Tole", "parentId": "RNP570", "displayName": "Mahajan Tole", "reference_id": "RNP768"}, {"nameLocal": "Maruti Cement Factory Area", "parentId": "RNP570", "displayName": "Maruti Cement Factory Area", "reference_id": "RNP702"}, {"nameLocal": "Naya Choharwa", "parentId": "RNP570", "displayName": "Naya Choharwa", "reference_id": "RNP645"}, {"nameLocal": "Purwa Bus Stop Area", "parentId": "RNP570", "displayName": "Purwa Bus Stop Area", "reference_id": "RNP1042"}, {"nameLocal": "Belhi Chowk", "parentId": "RNP591", "displayName": "Belhi Chowk", "reference_id": "RNP975"}, {"nameLocal": "Hanspur Municipality Office Area", "parentId": "RNP591", "displayName": "Hanspur Municipality Office Area", "reference_id": "RNP1018"}, {"nameLocal": "Kathapulla", "parentId": "RNP591", "displayName": "Kathapulla", "reference_id": "RNP1050"}, {"nameLocal": "Suga Nikash", "parentId": "RNP591", "displayName": "Suga Nikash", "reference_id": "RNP1005"}, {"nameLocal": "Aditya Batika Chowk", "parentId": "RNP551", "displayName": "Aditya Batika Chowk", "reference_id": "RNP893"}, {"nameLocal": "Barhathawa", "parentId": "RNP551", "displayName": "Barhathawa", "reference_id": "RNP1024"}, {"nameLocal": "Chaturbhujeshwar Multiple Campus Area", "parentId": "RNP551", "displayName": "Chaturbhujeshwar Multiple Campus Area", "reference_id": "RNP954"}, {"nameLocal": "Dharahara Chowk", "parentId": "RNP551", "displayName": "Dharahara Chowk", "reference_id": "RNP713"}, {"nameLocal": "Dhungrekhola", "parentId": "RNP551", "displayName": "Dhungrekhola", "reference_id": "RNP756"}, {"nameLocal": "Ganesh Chowk", "parentId": "RNP551", "displayName": "Ganesh Chowk", "reference_id": "RNP869"}, {"nameLocal": "Hariyon Bus Park Area", "parentId": "RNP551", "displayName": "Hariyon Bus Park Area", "reference_id": "RNP841"}, {"nameLocal": "Hariyon Park Area", "parentId": "RNP551", "displayName": "Hariyon Park Area", "reference_id": "RNP968"}, {"nameLocal": "Milan Chowk", "parentId": "RNP551", "displayName": "Milan Chowk", "reference_id": "RNP1012"}, {"nameLocal": "Purwa Bus Park Area", "parentId": "RNP551", "displayName": "Purwa Bus Park Area", "reference_id": "RNP1031"}, {"nameLocal": "Solti Bazaar", "parentId": "RNP551", "displayName": "Solti Bazaar", "reference_id": "RNP671"}, {"nameLocal": "Mahadev Mandir", "parentId": "RNP13", "displayName": "Mahadev Mandir", "reference_id": "RNP116"}, {"nameLocal": "Pipara", "parentId": "RNP13", "displayName": "Pipara", "reference_id": "RNP148"}, {"nameLocal": "Shankar chowk", "parentId": "RNP13", "displayName": "Shankar chowk", "reference_id": "RNP241"}, {"nameLocal": "Zero Mile", "parentId": "RNP13", "displayName": "Zero Mile", "reference_id": "RNP123"}, {"nameLocal": "Adarsh Nagar", "parentId": "R7678047", "displayName": "Adarsh Nagar", "reference_id": "R80314365"}, {"nameLocal": "Balmiki Nagar", "parentId": "R7678047", "displayName": "Balmiki Nagar", "reference_id": "R80314381"}, {"nameLocal": "Brahmapura Chowk", "parentId": "R7678047", "displayName": "Brahmapura Chowk", "reference_id": "R80314379"}, {"nameLocal": "Hanuman Nagar", "parentId": "R7678047", "displayName": "Hanuman Nagar", "reference_id": "R80314380"}, {"nameLocal": "Janaki Mandir Area", "parentId": "R7678047", "displayName": "Janaki Mandir Area", "reference_id": "R80314367"}, {"nameLocal": "Janaki Nagar", "parentId": "R7678047", "displayName": "Janaki Nagar", "reference_id": "RNP180"}, {"nameLocal": "Janakpur Airport Area", "parentId": "R7678047", "displayName": "Janakpur Airport Area", "reference_id": "R80314369"}, {"nameLocal": "Kishori Nagar", "parentId": "R7678047", "displayName": "Kishori Nagar", "reference_id": "R80314374"}, {"nameLocal": "Kurtha", "parentId": "R7678047", "displayName": "Kurtha", "reference_id": "RNP197"}, {"nameLocal": "Mahavir Chowk", "parentId": "R7678047", "displayName": "Mahavir Chowk", "reference_id": "RNP133"}, {"nameLocal": "Mahuwa-kapileswor", "parentId": "R7678047", "displayName": "Mahuwa-kapileswor", "reference_id": "RNP99"}, {"nameLocal": "Manharpur", "parentId": "R7678047", "displayName": "Manharpur", "reference_id": "RNP140"}, {"nameLocal": "Mills Area", "parentId": "R7678047", "displayName": "Mills Area", "reference_id": "R80314375"}, {"nameLocal": "Mujelia Area", "parentId": "R7678047", "displayName": "Mujelia Area", "reference_id": "R80314378"}, {"nameLocal": "Murali Chowk", "parentId": "R7678047", "displayName": "Murali Chowk", "reference_id": "R80314370"}, {"nameLocal": "Pidari Chowk", "parentId": "R7678047", "displayName": "Pidari Chowk", "reference_id": "R80314376"}, {"nameLocal": "Pulchowk", "parentId": "R7678047", "displayName": "Pulchowk", "reference_id": "R80314372"}, {"nameLocal": "Ramanand Chowk", "parentId": "R7678047", "displayName": "Ramanand Chowk", "reference_id": "R80314377"}, {"nameLocal": "Ram Chowk", "parentId": "R7678047", "displayName": "Ram Chowk", "reference_id": "R80314366"}, {"nameLocal": "Thapa Chowk", "parentId": "R7678047", "displayName": "Thapa Chowk", "reference_id": "R80314368"}, {"nameLocal": "Viswakarma Chowk", "parentId": "R7678047", "displayName": "Viswakarma Chowk", "reference_id": "RNP98"}, {"nameLocal": "Wakil Tole", "parentId": "R7678047", "displayName": "Wakil Tole", "reference_id": "R80314373"}, {"nameLocal": "Zero Mile", "parentId": "R7678047", "displayName": "Zero Mile", "reference_id": "R80314371"}, {"nameLocal": "Auraha Area", "parentId": "RNP308", "displayName": "Auraha Area", "reference_id": "RNP366"}, {"nameLocal": "Badan Nagar Area", "parentId": "RNP308", "displayName": "Badan Nagar Area", "reference_id": "RNP458"}, {"nameLocal": "Bajeni Area", "parentId": "RNP308", "displayName": "Bajeni Area", "reference_id": "RNP530"}, {"nameLocal": "Barack Area", "parentId": "RNP308", "displayName": "Barack Area", "reference_id": "RNP364"}, {"nameLocal": "Boring Tole", "parentId": "RNP308", "displayName": "Boring Tole", "reference_id": "RNP361"}, {"nameLocal": "Hulas Area", "parentId": "RNP308", "displayName": "Hulas Area", "reference_id": "RNP498"}, {"nameLocal": "Jagadamba Area", "parentId": "RNP308", "displayName": "Jagadamba Area", "reference_id": "RNP510"}, {"nameLocal": "Jeetpur Bazaar Area", "parentId": "RNP308", "displayName": "Jeetpur Bazaar Area", "reference_id": "RNP417"}, {"nameLocal": "Kera Dhoka Area", "parentId": "RNP308", "displayName": "Kera Dhoka Area", "reference_id": "RNP480"}, {"nameLocal": "Laxmi Hall Area", "parentId": "RNP308", "displayName": "Laxmi Hall Area", "reference_id": "RNP343"}, {"nameLocal": "Narbasti Area", "parentId": "RNP308", "displayName": "Narbasti Area", "reference_id": "RNP350"}, {"nameLocal": "Nepal Boards Area", "parentId": "RNP308", "displayName": "Nepal Boards Area", "reference_id": "RNP440"}, {"nameLocal": "Paani Tanki Area", "parentId": "RNP308", "displayName": "Paani Tanki Area", "reference_id": "RNP430"}, {"nameLocal": "Pahadi Tole", "parentId": "RNP308", "displayName": "Pahadi Tole", "reference_id": "RNP499"}, {"nameLocal": "Pathlaiya Traffic Chowk", "parentId": "RNP308", "displayName": "Pathlaiya Traffic Chowk", "reference_id": "RNP475"}, {"nameLocal": "Rampur Tokani - Dabur Area", "parentId": "RNP308", "displayName": "Rampur Tokani - Dabur Area", "reference_id": "RNP353"}, {"nameLocal": "Shanti Tole", "parentId": "RNP308", "displayName": "Shanti Tole", "reference_id": "RNP515"}, {"nameLocal": "Shiv Parvati Hall Area", "parentId": "RNP308", "displayName": "Shiv Parvati Hall Area", "reference_id": "RNP388"}, {"nameLocal": "Simara Airport Area", "parentId": "RNP308", "displayName": "Simara Airport Area", "reference_id": "RNP376"}, {"nameLocal": "Simara Chowk Area", "parentId": "RNP308", "displayName": "Simara Chowk Area", "reference_id": "RNP469"}, {"nameLocal": "Simara Colony", "parentId": "RNP308", "displayName": "Simara Colony", "reference_id": "RNP331"}, {"nameLocal": "Simara Powerhouse Area", "parentId": "RNP308", "displayName": "Simara Powerhouse Area", "reference_id": "RNP401"}, {"nameLocal": "Surya Niwas Area", "parentId": "RNP308", "displayName": "Surya Niwas Area", "reference_id": "RNP392"}, {"nameLocal": "Telecom Area", "parentId": "RNP308", "displayName": "Telecom Area", "reference_id": "RNP487"}, {"nameLocal": "Baijnathpur", "parentId": "RNP302", "displayName": "Baijnathpur", "reference_id": "RNP502"}, {"nameLocal": "Bharat Chowk", "parentId": "RNP302", "displayName": "Bharat Chowk", "reference_id": "RNP439"}, {"nameLocal": "Buspark Area", "parentId": "RNP302", "displayName": "Buspark Area", "reference_id": "RNP391"}, {"nameLocal": "CDO Office Area", "parentId": "RNP302", "displayName": "CDO Office Area", "reference_id": "RNP342"}, {"nameLocal": "Gupta Oil Area", "parentId": "RNP302", "displayName": "Gupta Oil Area", "reference_id": "RNP372"}, {"nameLocal": "Hanuman Mandir Area", "parentId": "RNP302", "displayName": "Hanuman Mandir Area", "reference_id": "RNP481"}, {"nameLocal": "Kalaiya Bajar", "parentId": "RNP302", "displayName": "Kalaiya Bajar", "reference_id": "RNP459"}, {"nameLocal": "Kalaiya Barewa Hospital Area", "parentId": "RNP302", "displayName": "Kalaiya Barewa Hospital Area", "reference_id": "RNP356"}, {"nameLocal": "Kalaiya Malpot Area", "parentId": "RNP302", "displayName": "Kalaiya Malpot Area", "reference_id": "RNP336"}, {"nameLocal": "Motisar", "parentId": "RNP302", "displayName": "Motisar", "reference_id": "RNP313"}, {"nameLocal": "Parsauni", "parentId": "RNP302", "displayName": "Parsauni", "reference_id": "RNP345"}, {"nameLocal": "Pheta", "parentId": "RNP302", "displayName": "Pheta", "reference_id": "RNP418"}, {"nameLocal": "Rajaram Campus Area", "parentId": "RNP302", "displayName": "Rajaram Campus Area", "reference_id": "RNP483"}, {"nameLocal": "Shiksha Office Area", "parentId": "RNP302", "displayName": "Shiksha Office Area", "reference_id": "RNP333"}, {"nameLocal": "Siddheshwor Mandir Area", "parentId": "RNP302", "displayName": "Siddheshwor Mandir Area", "reference_id": "RNP528"}, {"nameLocal": "Ganesh Chowk", "parentId": "RNP301", "displayName": "Ganesh Chowk", "reference_id": "RNP504"}, {"nameLocal": "Ganeshpur", "parentId": "RNP301", "displayName": "Ganeshpur", "reference_id": "RNP428"}, {"nameLocal": "ISKCON Area", "parentId": "RNP301", "displayName": "ISKCON Area", "reference_id": "RNP385"}, {"nameLocal": "J.S. Murarka Campus Area", "parentId": "RNP301", "displayName": "J.S. Murarka Campus Area", "reference_id": "RNP379"}, {"nameLocal": "Lahan Municipality Office Area", "parentId": "RNP301", "displayName": "Lahan Municipality Office Area", "reference_id": "RNP341"}, {"nameLocal": "Lahan Post Office Area", "parentId": "RNP301", "displayName": "Lahan Post Office Area", "reference_id": "RNP431"}, {"nameLocal": "Lahan Vegetable Market", "parentId": "RNP301", "displayName": "Lahan Vegetable Market", "reference_id": "RNP518"}, {"nameLocal": "Nepal Telecom Area", "parentId": "RNP301", "displayName": "Nepal Telecom Area", "reference_id": "RNP505"}, {"nameLocal": "Padariya", "parentId": "RNP301", "displayName": "Padariya", "reference_id": "RNP399"}, {"nameLocal": "Saptarishi Hospital Area", "parentId": "RNP301", "displayName": "Saptarishi Hospital Area", "reference_id": "RNP514"}, {"nameLocal": "Sisawani", "parentId": "RNP301", "displayName": "Sisawani", "reference_id": "RNP362"}, {"nameLocal": "Sonmati Majhaura", "parentId": "RNP301", "displayName": "Sonmati Majhaura", "reference_id": "RNP377"}, {"nameLocal": "Bayalbas Bazaar", "parentId": "RNP572", "displayName": "Bayalbas Bazaar", "reference_id": "RNP752"}, {"nameLocal": "Dhukdhuki FM Area", "parentId": "RNP572", "displayName": "Dhukdhuki FM Area", "reference_id": "RNP688"}, {"nameLocal": "Janajyoti Multiple Campus Area", "parentId": "RNP572", "displayName": "Janajyoti Multiple Campus Area", "reference_id": "RNP722"}, {"nameLocal": "Jutpani Bus Stop Area", "parentId": "RNP572", "displayName": "Jutpani Bus Stop Area", "reference_id": "RNP908"}, {"nameLocal": "Kalinjor School Area", "parentId": "RNP572", "displayName": "Kalinjor School Area", "reference_id": "RNP853"}, {"nameLocal": "Laxmipur", "parentId": "RNP572", "displayName": "Laxmipur", "reference_id": "RNP994"}, {"nameLocal": "Mejargunj Chautara", "parentId": "RNP572", "displayName": "Mejargunj Chautara", "reference_id": "RNP911"}, {"nameLocal": "Nawalpur Bazaar", "parentId": "RNP572", "displayName": "Nawalpur Bazaar", "reference_id": "RNP689"}, {"nameLocal": "Netragunj", "parentId": "RNP572", "displayName": "Netragunj", "reference_id": "RNP625"}, {"nameLocal": "Raniganj Chowk", "parentId": "RNP572", "displayName": "Raniganj Chowk", "reference_id": "RNP894"}, {"nameLocal": "Vegetable Mart Area", "parentId": "RNP572", "displayName": "Vegetable Mart Area", "reference_id": "RNP681"}, {"nameLocal": "Bhagwatpur", "parentId": "RNP573", "displayName": "Bhagwatpur", "reference_id": "RNP938"}, {"nameLocal": "Fulbariya School Area", "parentId": "RNP573", "displayName": "Fulbariya School Area", "reference_id": "RNP868"}, {"nameLocal": "Ghurmi Bazaar", "parentId": "RNP573", "displayName": "Ghurmi Bazaar", "reference_id": "RNP1013"}, {"nameLocal": "Katari Chowk", "parentId": "RNP573", "displayName": "Katari Chowk", "reference_id": "RNP821"}, {"nameLocal": "Mirchaiya Bazar", "parentId": "RNP573", "displayName": "Mirchaiya Bazar", "reference_id": "RNP788"}, {"nameLocal": "Sanstha Chowk", "parentId": "RNP573", "displayName": "Sanstha Chowk", "reference_id": "RNP945"}, {"nameLocal": "Dhalkebar Chowk", "parentId": "RNP540", "displayName": "Dhalkebar Chowk", "reference_id": "RNP944"}, {"nameLocal": "Dhalkebar Substation Area", "parentId": "RNP540", "displayName": "Dhalkebar Substation Area", "reference_id": "RNP983"}, {"nameLocal": "Jamunabas Bus Park Area", "parentId": "RNP540", "displayName": "Jamunabas Bus Park Area", "reference_id": "RNP1068"}, {"nameLocal": "Kushwaha Chowk", "parentId": "RNP540", "displayName": "Kushwaha Chowk", "reference_id": "RNP939"}, {"nameLocal": "Mithila Municipality Office Area", "parentId": "RNP540", "displayName": "Mithila Municipality Office Area", "reference_id": "RNP767"}, {"nameLocal": "Ram Laxman Chowk", "parentId": "RNP540", "displayName": "Ram Laxman Chowk", "reference_id": "RNP1083"}, {"nameLocal": "Bhutahi Bazar", "parentId": "RNP563", "displayName": "Bhutahi Bazar", "reference_id": "RNP842"}, {"nameLocal": "Mauwahi", "parentId": "RNP563", "displayName": "Mauwahi", "reference_id": "RNP1046"}, {"nameLocal": "Purandaha Bazaar", "parentId": "RNP563", "displayName": "Purandaha Bazaar", "reference_id": "RNP967"}, {"nameLocal": "Tarapatti Bazaar", "parentId": "RNP563", "displayName": "Tarapatti Bazaar", "reference_id": "RNP918"}, {"nameLocal": "Tarapatti Sirsiya", "parentId": "RNP563", "displayName": "Tarapatti Sirsiya", "reference_id": "RNP617"}, {"nameLocal": "Thera", "parentId": "RNP563", "displayName": "Thera", "reference_id": "RNP1028"}, {"nameLocal": "Fulgama", "parentId": "RNP557", "displayName": "Fulgama", "reference_id": "RNP622"}, {"nameLocal": "Hospital Chowk", "parentId": "RNP557", "displayName": "Hospital Chowk", "reference_id": "RNP899"}, {"nameLocal": "Jatahi", "parentId": "RNP557", "displayName": "Jatahi", "reference_id": "RNP978"}, {"nameLocal": "Lagmagadhaguthi", "parentId": "RNP557", "displayName": "Lagmagadhaguthi", "reference_id": "RNP956"}, {"nameLocal": "Lagmagadhaguthi Masjid Area", "parentId": "RNP557", "displayName": "Lagmagadhaguthi Masjid Area", "reference_id": "RNP727"}, {"nameLocal": "Nochha Park Area", "parentId": "RNP557", "displayName": "Nochha Park Area", "reference_id": "RNP1074"}, {"nameLocal": "Vegetable Market Area", "parentId": "RNP557", "displayName": "Vegetable Market Area", "reference_id": "RNP814"}, {"nameLocal": "Airport Area", "parentId": "RNP538", "displayName": "Airport Area", "reference_id": "RNP678"}, {"nameLocal": "Boriya Petrol Pump Area", "parentId": "RNP538", "displayName": "Boriya Petrol Pump Area", "reference_id": "RNP1043"}, {"nameLocal": "Gajendra Narayan Singh Chowk", "parentId": "RNP538", "displayName": "Gajendra Narayan Singh Chowk", "reference_id": "RNP598"}, {"nameLocal": "Islampur Purni Pokhri", "parentId": "RNP538", "displayName": "Islampur Purni Pokhri", "reference_id": "RNP826"}, {"nameLocal": "Karn Park Area", "parentId": "RNP538", "displayName": "Karn Park Area", "reference_id": "RNP749"}, {"nameLocal": "Kharsal Tole", "parentId": "RNP538", "displayName": "Kharsal Tole", "reference_id": "RNP852"}, {"nameLocal": "Maleth", "parentId": "RNP538", "displayName": "Maleth", "reference_id": "RNP930"}, {"nameLocal": "Pulchowk", "parentId": "RNP538", "displayName": "Pulchowk", "reference_id": "RNP864"}, {"nameLocal": "Rajbiraj Model Campus Area", "parentId": "RNP538", "displayName": "Rajbiraj Model Campus Area", "reference_id": "RNP963"}, {"nameLocal": "Raj Devi Field Area", "parentId": "RNP538", "displayName": "Raj Devi Field Area", "reference_id": "RNP615"}, {"nameLocal": "Shree Shiv Baba Mandir Area", "parentId": "RNP538", "displayName": "Shree Shiv Baba Mandir Area", "reference_id": "RNP1014"}, {"nameLocal": "Tetri Gachhi Chowk", "parentId": "RNP538", "displayName": "Tetri Gachhi Chowk", "reference_id": "RNP1063"}, {"nameLocal": "Turanti Pokhari Area", "parentId": "RNP538", "displayName": "Turanti Pokhari Area", "reference_id": "RNP946"}, {"nameLocal": "Urban Green Park Area", "parentId": "RNP538", "displayName": "Urban Green Park Area", "reference_id": "RNP1029"}, {"nameLocal": "Bhathihan Bazaar", "parentId": "RNP566", "displayName": "Bhathihan Bazaar", "reference_id": "RNP1088"}, {"nameLocal": "Hanuman Chowk", "parentId": "RNP566", "displayName": "Hanuman Chowk", "reference_id": "RNP896"}, {"nameLocal": "Kiratpur", "parentId": "RNP566", "displayName": "Kiratpur", "reference_id": "RNP831"}, {"nameLocal": "Sabaila Bazaar", "parentId": "RNP566", "displayName": "Sabaila Bazaar", "reference_id": "RNP595"}, {"nameLocal": "Sabaila Municipality Office Area", "parentId": "RNP566", "displayName": "Sabaila Municipality Office Area", "reference_id": "RNP776"}, {"nameLocal": "Thilla Yaduwa", "parentId": "RNP566", "displayName": "Thilla Yaduwa", "reference_id": "RNP850"}, {"nameLocal": "Aadarsha Chowk", "parentId": "RNP544", "displayName": "Aadarsha Chowk", "reference_id": "RNP902"}, {"nameLocal": "Chandani Chowk", "parentId": "RNP544", "displayName": "Chandani Chowk", "reference_id": "RNP846"}, {"nameLocal": "Hanuman Mandir Area", "parentId": "RNP544", "displayName": "Hanuman Mandir Area", "reference_id": "RNP851"}, {"nameLocal": "Noori Jama Masjid Area", "parentId": "RNP544", "displayName": "Noori Jama Masjid Area", "reference_id": "RNP1001"}, {"nameLocal": "Shahid Municipality Office Area", "parentId": "RNP544", "displayName": "Shahid Municipality Office Area", "reference_id": "RNP593"}, {"nameLocal": "Yadukuha P.H.C Area", "parentId": "RNP544", "displayName": "Yadukuha P.H.C Area", "reference_id": "RNP1064"}, {"nameLocal": "Yadukuha Police Beat Area", "parentId": "RNP544", "displayName": "Yadukuha Police Beat Area", "reference_id": "RNP887"}, {"nameLocal": "Arjundhara Municipality Office Area", "parentId": "RNP577", "displayName": "Arjundhara Municipality Office Area", "reference_id": "RNP889"}, {"nameLocal": "Bhaisabadi", "parentId": "RNP577", "displayName": "Bhaisabadi", "reference_id": "RNP922"}, {"nameLocal": "Laxmipur Bus Stop Area", "parentId": "RNP577", "displayName": "Laxmipur Bus Stop Area", "reference_id": "RNP865"}, {"nameLocal": "Post Office Area", "parentId": "RNP577", "displayName": "Post Office Area", "reference_id": "RNP905"}, {"nameLocal": "Aadarsha Boarding School Area", "parentId": "RNP589", "displayName": "Aadarsha Boarding School Area", "reference_id": "RNP1090"}, {"nameLocal": "Bazaar Line", "parentId": "RNP589", "displayName": "Bazaar Line", "reference_id": "RNP1087"}, {"nameLocal": "Belbari Health Post Area", "parentId": "RNP589", "displayName": "Belbari Health Post Area", "reference_id": "RNP998"}, {"nameLocal": "Belbari Multiple Campus Area", "parentId": "RNP589", "displayName": "Belbari Multiple Campus Area", "reference_id": "RNP1048"}, {"nameLocal": "Belbari Paschhim Bus Park Area", "parentId": "RNP589", "displayName": "Belbari Paschhim Bus Park Area", "reference_id": "RNP879"}, {"nameLocal": "Betana Wetland", "parentId": "RNP589", "displayName": "Betana Wetland", "reference_id": "RNP613"}, {"nameLocal": "Bhaunne Bazaar", "parentId": "RNP589", "displayName": "Bhaunne Bazaar", "reference_id": "RNP624"}, {"nameLocal": "Dangihat Rangashala Area", "parentId": "RNP589", "displayName": "Dangihat Rangashala Area", "reference_id": "RNP789"}, {"nameLocal": "Laxmi Marga Chowk", "parentId": "RNP589", "displayName": "Laxmi Marga Chowk", "reference_id": "RNP900"}, {"nameLocal": "Malpot Line", "parentId": "RNP589", "displayName": "Malpot Line", "reference_id": "RNP827"}, {"nameLocal": "Milijuli Chowk", "parentId": "RNP589", "displayName": "Milijuli Chowk", "reference_id": "RNP661"}, {"nameLocal": "Ratna Chowk", "parentId": "RNP589", "displayName": "Ratna Chowk", "reference_id": "RNP921"}, {"nameLocal": "Sahakari Tole", "parentId": "RNP589", "displayName": "Sahakari Tole", "reference_id": "RNP873"}, {"nameLocal": "Bhadrapur Buspark Area", "parentId": "RNP290", "displayName": "Bhadrapur Buspark Area", "reference_id": "RNP420"}, {"nameLocal": "Campus Mode Area", "parentId": "RNP290", "displayName": "Campus Mode Area", "reference_id": "RNP411"}, {"nameLocal": "Dukhi Tole Area", "parentId": "RNP290", "displayName": "Dukhi Tole Area", "reference_id": "RNP488"}, {"nameLocal": "Giri Chowk Area", "parentId": "RNP290", "displayName": "Giri Chowk Area", "reference_id": "RNP328"}, {"nameLocal": "Kirat Colony Area", "parentId": "RNP290", "displayName": "Kirat Colony Area", "reference_id": "RNP316"}, {"nameLocal": "Mechi Hospital Area", "parentId": "RNP290", "displayName": "Mechi Hospital Area", "reference_id": "RNP474"}, {"nameLocal": "Biratnagar Dhaath/Gate", "parentId": "R7458894", "displayName": "Biratnagar Dhaath/Gate", "reference_id": "RNP772"}, {"nameLocal": "Roadcess/Koshi Project Area", "parentId": "R7458894", "displayName": "Roadcess/Koshi Project Area", "reference_id": "RNP107"}, {"nameLocal": "B.FM. Area", "parentId": "R7458894", "displayName": "B.FM. Area", "reference_id": "RNP726"}, {"nameLocal": "Bargacchi Chowk Area", "parentId": "R7458894", "displayName": "Bargacchi Chowk Area", "reference_id": "R80302210"}, {"nameLocal": "Bhirkuti Chowk Area", "parentId": "R7458894", "displayName": "Bhirkuti Chowk Area", "reference_id": "R80302219"}, {"nameLocal": "Campus Road Area", "parentId": "R7458894", "displayName": "Campus Road Area", "reference_id": "R80302208"}, {"nameLocal": "Chimadi Sunsari", "parentId": "R7458894", "displayName": "Chimadi Sunsari", "reference_id": "RNP980"}, {"nameLocal": "Haat Khola Area", "parentId": "R7458894", "displayName": "Haat Khola Area", "reference_id": "R80302205"}, {"nameLocal": "Hospital Chowk", "parentId": "R7458894", "displayName": "Hospital Chowk", "reference_id": "R80302212"}, {"nameLocal": "Ikrahi Area", "parentId": "R7458894", "displayName": "Ikrahi Area", "reference_id": "RNP874"}, {"nameLocal": "Jaljala Chowk Area", "parentId": "R7458894", "displayName": "Jaljala Chowk Area", "reference_id": "R80302209"}, {"nameLocal": "Janpathtole Area", "parentId": "R7458894", "displayName": "Janpathtole Area", "reference_id": "R80302203"}, {"nameLocal": "Jhorahat Area", "parentId": "R7458894", "displayName": "Jhorahat Area", "reference_id": "RNP757"}, {"nameLocal": "Kanchanbari Area", "parentId": "R7458894", "displayName": "Kanchanbari Area", "reference_id": "R80302213"}, {"nameLocal": "Katahari Area", "parentId": "R7458894", "displayName": "Katahari Area", "reference_id": "RNP56"}, {"nameLocal": "Keshaliya Rampur", "parentId": "R7458894", "displayName": "Keshaliya Rampur", "reference_id": "RNP1066"}, {"nameLocal": "Kharji Kohobara", "parentId": "R7458894", "displayName": "Kharji Kohobara", "reference_id": "RNP1082"}, {"nameLocal": "Madumara Area", "parentId": "R7458894", "displayName": "Madumara Area", "reference_id": "R80302217"}, {"nameLocal": "Mahendra Chowk Area", "parentId": "R7458894", "displayName": "Mahendra Chowk Area", "reference_id": "R80302215"}, {"nameLocal": "Maheshpur Area", "parentId": "R7458894", "displayName": "Maheshpur Area", "reference_id": "RNP603"}, {"nameLocal": "Maisthan Area", "parentId": "R7458894", "displayName": "Maisthan Area", "reference_id": "R80302221"}, {"nameLocal": "Mangadh Area", "parentId": "R7458894", "displayName": "Mangadh Area", "reference_id": "R80302201"}, {"nameLocal": "Nayabazar Area", "parentId": "R7458894", "displayName": "Nayabazar Area", "reference_id": "RNP1049"}, {"nameLocal": "Nemuwa", "parentId": "R7458894", "displayName": "Nemuwa", "reference_id": "RNP943"}, {"nameLocal": "Nobel Hospital Area", "parentId": "R7458894", "displayName": "Nobel Hospital Area", "reference_id": "RNP139"}, {"nameLocal": "Paani Tanki Area", "parentId": "R7458894", "displayName": "Paani Tanki Area", "reference_id": "R80302216"}, {"nameLocal": "Panchali Tole Area", "parentId": "R7458894", "displayName": "Panchali Tole Area", "reference_id": "R80302220"}, {"nameLocal": "Puset Area", "parentId": "R7458894", "displayName": "Puset Area", "reference_id": "R80302214"}, {"nameLocal": "Pushpalal Chowk Area", "parentId": "R7458894", "displayName": "Pushpalal Chowk Area", "reference_id": "R80302202"}, {"nameLocal": "Rajbanshi Chowk", "parentId": "R7458894", "displayName": "Rajbanshi Chowk", "reference_id": "RNP647"}, {"nameLocal": "Rangashala Area", "parentId": "R7458894", "displayName": "Rangashala Area", "reference_id": "R80302206"}, {"nameLocal": "Rani Bank Road Area", "parentId": "R7458894", "displayName": "Rani Bank Road Area", "reference_id": "RNP184"}, {"nameLocal": "Rani Border Area", "parentId": "R7458894", "displayName": "Rani Border Area", "reference_id": "RNP243"}, {"nameLocal": "Rani Nahar Area", "parentId": "R7458894", "displayName": "Rani Nahar Area", "reference_id": "RNP44"}, {"nameLocal": "Shanihat Area", "parentId": "R7458894", "displayName": "Shanihat Area", "reference_id": "R80302222"}, {"nameLocal": "Shankarpur Area", "parentId": "R7458894", "displayName": "Shankarpur Area", "reference_id": "R80302211"}, {"nameLocal": "Siddhartha Chowk Area", "parentId": "R7458894", "displayName": "Siddhartha Chowk Area", "reference_id": "R80302218"}, {"nameLocal": "Sikshya Sadan School Area", "parentId": "R7458894", "displayName": "Sikshya Sadan School Area", "reference_id": "R80302207"}, {"nameLocal": "Tankisinuwari Area", "parentId": "R7458894", "displayName": "Tankisinuwari Area", "reference_id": "RNP715"}, {"nameLocal": "Traffic Chowk", "parentId": "R7458894", "displayName": "Traffic Chowk", "reference_id": "R80302204"}, {"nameLocal": "Anarmuni Area", "parentId": "RNP307", "displayName": "Anarmuni Area", "reference_id": "RNP405"}, {"nameLocal": "Bhagwan Chowk", "parentId": "RNP307", "displayName": "Bhagwan Chowk", "reference_id": "RNP1045"}, {"nameLocal": "Birtamod Buspark Area", "parentId": "RNP307", "displayName": "Birtamod Buspark Area", "reference_id": "RNP495"}, {"nameLocal": "Buttabari Area", "parentId": "RNP307", "displayName": "Buttabari Area", "reference_id": "RNP321"}, {"nameLocal": "Charpane Area", "parentId": "RNP307", "displayName": "Charpane Area", "reference_id": "RNP466"}, {"nameLocal": "Garamuni Campus Area", "parentId": "RNP307", "displayName": "Garamuni Campus Area", "reference_id": "RNP709"}, {"nameLocal": "Mahananda Chowk", "parentId": "RNP307", "displayName": "Mahananda Chowk", "reference_id": "RNP652"}, {"nameLocal": "Mechi Eye Hospital Area", "parentId": "RNP307", "displayName": "Mechi Eye Hospital Area", "reference_id": "RNP410"}, {"nameLocal": "Mukti Chowk Area", "parentId": "RNP307", "displayName": "Mukti Chowk Area", "reference_id": "RNP355"}, {"nameLocal": "Pathivara Hall Area", "parentId": "RNP307", "displayName": "Pathivara Hall Area", "reference_id": "RNP330"}, {"nameLocal": "Ramchowk Area", "parentId": "RNP307", "displayName": "Ramchowk Area", "reference_id": "RNP447"}, {"nameLocal": "Ranibirta Area", "parentId": "RNP307", "displayName": "Ranibirta Area", "reference_id": "RNP424"}, {"nameLocal": "Staff Chowk", "parentId": "RNP307", "displayName": "Staff Chowk", "reference_id": "RNP640"}, {"nameLocal": "Trishuli Chowk Area", "parentId": "RNP307", "displayName": "Trishuli Chowk Area", "reference_id": "RNP318"}, {"nameLocal": "Bhaire Chowk", "parentId": "RNP300", "displayName": "Bhaire Chowk", "reference_id": "RNP334"}, {"nameLocal": "Chaitu Mandir Area", "parentId": "RNP300", "displayName": "Chaitu Mandir Area", "reference_id": "RNP340"}, {"nameLocal": "Chandragadi Airport Area", "parentId": "RNP300", "displayName": "Chandragadi Airport Area", "reference_id": "RNP500"}, {"nameLocal": "Devkota Chowk Area", "parentId": "RNP300", "displayName": "Devkota Chowk Area", "reference_id": "RNP454"}, {"nameLocal": "Dhanushmod Area", "parentId": "RNP300", "displayName": "Dhanushmod Area", "reference_id": "RNP327"}, {"nameLocal": "Jagriti Nagar", "parentId": "RNP300", "displayName": "Jagriti Nagar", "reference_id": "RNP332"}, {"nameLocal": "Kendramode Area", "parentId": "RNP300", "displayName": "Kendramode Area", "reference_id": "RNP414"}, {"nameLocal": "Lekhnath Chowk Area", "parentId": "RNP300", "displayName": "Lekhnath Chowk Area", "reference_id": "RNP448"}, {"nameLocal": "Mahendra Park Area", "parentId": "RNP300", "displayName": "Mahendra Park Area", "reference_id": "RNP409"}, {"nameLocal": "Beldangi Area", "parentId": "RNP296", "displayName": "Beldangi Area", "reference_id": "RNP412"}, {"nameLocal": "Buddha Chowk Area", "parentId": "RNP296", "displayName": "Buddha Chowk Area", "reference_id": "RNP531"}, {"nameLocal": "Damak Buspark Area", "parentId": "RNP296", "displayName": "Damak Buspark Area", "reference_id": "RNP468"}, {"nameLocal": "Damak Multiple Campus Area", "parentId": "RNP296", "displayName": "Damak Multiple Campus Area", "reference_id": "RNP426"}, {"nameLocal": "Falgunanda Chowk Area", "parentId": "RNP296", "displayName": "Falgunanda Chowk Area", "reference_id": "RNP397"}, {"nameLocal": "Gumaune Area", "parentId": "RNP296", "displayName": "Gumaune Area", "reference_id": "RNP476"}, {"nameLocal": "Havildar Chowk Area", "parentId": "RNP296", "displayName": "Havildar Chowk Area", "reference_id": "RNP382"}, {"nameLocal": "Krishna Mandir Area", "parentId": "RNP296", "displayName": "Krishna Mandir Area", "reference_id": "RNP473"}, {"nameLocal": "Makalu Tole Area", "parentId": "RNP296", "displayName": "Makalu Tole Area", "reference_id": "RNP369"}, {"nameLocal": "New Amda Hospital Area", "parentId": "RNP296", "displayName": "New Amda Hospital Area", "reference_id": "RNP501"}, {"nameLocal": "Sangam Chowk Area", "parentId": "RNP296", "displayName": "Sangam Chowk Area", "reference_id": "RNP335"}, {"nameLocal": "Shanti Chowk Area", "parentId": "RNP296", "displayName": "Shanti Chowk Area", "reference_id": "RNP506"}, {"nameLocal": "Shanti Marga Area", "parentId": "RNP296", "displayName": "Shanti Marga Area", "reference_id": "RNP381"}, {"nameLocal": "Adalat Road", "parentId": "RNP568", "displayName": "Adalat Road", "reference_id": "RNP909"}, {"nameLocal": "Dadagaun Football Ground", "parentId": "RNP568", "displayName": "Dadagaun Football Ground", "reference_id": "RNP796"}, {"nameLocal": "Dhankuta Bus Park Area", "parentId": "RNP568", "displayName": "Dhankuta Bus Park Area", "reference_id": "RNP651"}, {"nameLocal": "Dhankuta Multiple Campus Area", "parentId": "RNP568", "displayName": "Dhankuta Multiple Campus Area", "reference_id": "RNP839"}, {"nameLocal": "Dhankuta Stadium", "parentId": "RNP568", "displayName": "Dhankuta Stadium", "reference_id": "RNP802"}, {"nameLocal": "Heli Pad Area", "parentId": "RNP568", "displayName": "Heli Pad Area", "reference_id": "RNP976"}, {"nameLocal": "Bagarkot Area", "parentId": "R7463953", "displayName": "Bagarkot Area", "reference_id": "R5921523"}, {"nameLocal": "Bargachhi Area", "parentId": "R7463953", "displayName": "Bargachhi Area", "reference_id": "R80314389"}, {"nameLocal": "Bhanu Chowk Area", "parentId": "R7463953", "displayName": "Bhanu Chowk Area", "reference_id": "R80314383"}, {"nameLocal": "Bhotepul Area", "parentId": "R7463953", "displayName": "Bhotepul Area", "reference_id": "R80314390"}, {"nameLocal": "Bijayapur Area", "parentId": "R7463953", "displayName": "Bijayapur Area", "reference_id": "R5911510"}, {"nameLocal": "BP Health Science Institute Area", "parentId": "R7463953", "displayName": "BP Health Science Institute Area", "reference_id": "R80314384"}, {"nameLocal": "Chata Chowk Area", "parentId": "R7463953", "displayName": "Chata Chowk Area", "reference_id": "R80314388"}, {"nameLocal": "Deshi line", "parentId": "R7463953", "displayName": "Deshi line", "reference_id": "R80314392"}, {"nameLocal": "Dharan Railway Area", "parentId": "R7463953", "displayName": "Dharan Railway Area", "reference_id": "R80314385"}, {"nameLocal": "Dharan Stadium Area", "parentId": "R7463953", "displayName": "Dharan Stadium Area", "reference_id": "R80314395"}, {"nameLocal": "Mangalbarey Area", "parentId": "R7463953", "displayName": "Mangalbarey Area", "reference_id": "R80314396"}, {"nameLocal": "Phushre Area", "parentId": "R7463953", "displayName": "Phushre Area", "reference_id": "R80314386"}, {"nameLocal": "Purano Bazaar", "parentId": "R7463953", "displayName": "Purano Bazaar", "reference_id": "R80314393"}, {"nameLocal": "Putali line", "parentId": "R7463953", "displayName": "Putali line", "reference_id": "R80314391"}, {"nameLocal": "Shyam Chowk Area", "parentId": "R7463953", "displayName": "Shyam Chowk Area", "reference_id": "R80314394"}, {"nameLocal": "Tinkune Area", "parentId": "R7463953", "displayName": "Tinkune Area", "reference_id": "R80314382"}, {"nameLocal": "Zero Point Area", "parentId": "R7463953", "displayName": "Zero Point Area", "reference_id": "R80314387"}, {"nameLocal": "Ball Statue", "parentId": "RNP549", "displayName": "Ball Statue", "reference_id": "RNP965"}, {"nameLocal": "Duhabi Bus park area", "parentId": "RNP549", "displayName": "Duhabi Bus park area", "reference_id": "RNP824"}, {"nameLocal": "Sonapur Bus Park area", "parentId": "RNP549", "displayName": "Sonapur Bus Park area", "reference_id": "RNP668"}, {"nameLocal": "Beldangi Chowk", "parentId": "RNP542", "displayName": "Beldangi Chowk", "reference_id": "RNP907"}, {"nameLocal": "Campus Mode", "parentId": "RNP542", "displayName": "Campus Mode", "reference_id": "RNP596"}, {"nameLocal": "Dhobiniya Chowk", "parentId": "RNP542", "displayName": "Dhobiniya Chowk", "reference_id": "RNP861"}, {"nameLocal": "Dipu Chowk", "parentId": "RNP542", "displayName": "Dipu Chowk", "reference_id": "RNP687"}, {"nameLocal": "Gauradaha Bazaar", "parentId": "RNP542", "displayName": "Gauradaha Bazaar", "reference_id": "RNP1017"}, {"nameLocal": "Mechi Eye Hospital Area", "parentId": "RNP542", "displayName": "Mechi Eye Hospital Area", "reference_id": "RNP953"}, {"nameLocal": "Milan Chowk", "parentId": "RNP542", "displayName": "Milan Chowk", "reference_id": "RNP1058"}, {"nameLocal": "Bhrikuti Chowk", "parentId": "RNP590", "displayName": "Bhrikuti Chowk", "reference_id": "RNP748"}, {"nameLocal": "Ilam Bazar Area", "parentId": "RNP590", "displayName": "Ilam Bazar Area", "reference_id": "RNP834"}, {"nameLocal": "Ilam Bus Park Area", "parentId": "RNP590", "displayName": "Ilam Bus Park Area", "reference_id": "RNP1030"}, {"nameLocal": "Ilam Municipality Area", "parentId": "RNP590", "displayName": "Ilam Municipality Area", "reference_id": "RNP628"}, {"nameLocal": "Ilam View Tower Area", "parentId": "RNP590", "displayName": "Ilam View Tower Area", "reference_id": "RNP761"}, {"nameLocal": "Kalinaag Mandir Area", "parentId": "RNP590", "displayName": "Kalinaag Mandir Area", "reference_id": "RNP692"}, {"nameLocal": "Kharel Dada", "parentId": "RNP590", "displayName": "Kharel Dada", "reference_id": "RNP719"}, {"nameLocal": "Mahendra Ratna Multiple Campus Area", "parentId": "RNP590", "displayName": "Mahendra Ratna Multiple Campus Area", "reference_id": "RNP881"}, {"nameLocal": "Tilkeni Mod", "parentId": "RNP590", "displayName": "Tilkeni Mod", "reference_id": "RNP1078"}, {"nameLocal": "Bihibare hat bazar", "parentId": "RNP588", "displayName": "Bihibare hat bazar", "reference_id": "RNP863"}, {"nameLocal": "Inaruwa Bus stop area", "parentId": "RNP588", "displayName": "Inaruwa Bus stop area", "reference_id": "RNP996"}, {"nameLocal": "Inaruwa Hospital Area", "parentId": "RNP588", "displayName": "Inaruwa Hospital Area", "reference_id": "RNP777"}, {"nameLocal": "Sakhuwagachhi", "parentId": "RNP588", "displayName": "Sakhuwagachhi", "reference_id": "RNP1020"}, {"nameLocal": "Simpane Pragati Tole", "parentId": "RNP588", "displayName": "Simpane Pragati Tole", "reference_id": "RNP683"}, {"nameLocal": "Army Headquarters Area", "parentId": "R7464257", "displayName": "Army Headquarters Area", "reference_id": "R80314406"}, {"nameLocal": "Balgram Area", "parentId": "R7464257", "displayName": "Balgram Area", "reference_id": "R80314402"}, {"nameLocal": "Gaisar Area", "parentId": "R7464257", "displayName": "Gaisar Area", "reference_id": "R80314397"}, {"nameLocal": "Halgada Chowk Area", "parentId": "R7464257", "displayName": "Halgada Chowk Area", "reference_id": "R80314407"}, {"nameLocal": "Hatiya Line Area", "parentId": "R7464257", "displayName": "Hatiya Line Area", "reference_id": "R6687708"}, {"nameLocal": "Itahari Buspark Area", "parentId": "R7464257", "displayName": "Itahari Buspark Area", "reference_id": "R80314403"}, {"nameLocal": "Jhumka City Area", "parentId": "R7464257", "displayName": "Jhumka City Area", "reference_id": "R80314411"}, {"nameLocal": "Khanar City Area", "parentId": "R7464257", "displayName": "Khanar City Area", "reference_id": "R80314412"}, {"nameLocal": "Labipur Area", "parentId": "R7464257", "displayName": "Labipur Area", "reference_id": "R80314401"}, {"nameLocal": "Padariya Area", "parentId": "R7464257", "displayName": "Padariya Area", "reference_id": "R80314409"}, {"nameLocal": "Pakali Area", "parentId": "R7464257", "displayName": "Pakali Area", "reference_id": "R7464310"}, {"nameLocal": "Pandhare Tole Area", "parentId": "R7464257", "displayName": "Pandhare Tole Area", "reference_id": "R80314405"}, {"nameLocal": "Suvidha Nagar", "parentId": "R7464257", "displayName": "Suvidha Nagar", "reference_id": "R80314398"}, {"nameLocal": "Swagat Tole Area", "parentId": "R7464257", "displayName": "Swagat Tole Area", "reference_id": "R80314404"}, {"nameLocal": "Tal Talaiya Area", "parentId": "R7464257", "displayName": "Tal Talaiya Area", "reference_id": "R80314400"}, {"nameLocal": "Tarahara Area", "parentId": "R7464257", "displayName": "Tarahara Area", "reference_id": "R80314399"}, {"nameLocal": "Tax Office Area", "parentId": "R7464257", "displayName": "Tax Office Area", "reference_id": "R80314410"}, {"nameLocal": "Traffic Chowk Area", "parentId": "R7464257", "displayName": "Traffic Chowk Area", "reference_id": "R80314408"}, {"nameLocal": "Barmeli Tole Area", "parentId": "RNP303", "displayName": "Barmeli Tole Area", "reference_id": "RNP507"}, {"nameLocal": "Eye Hospital Area", "parentId": "RNP303", "displayName": "Eye Hospital Area", "reference_id": "RNP368"}, {"nameLocal": "Kakarbhitta Buspark Area", "parentId": "RNP303", "displayName": "Kakarbhitta Buspark Area", "reference_id": "RNP503"}, {"nameLocal": "Kakarbhitta Customs Area", "parentId": "RNP303", "displayName": "Kakarbhitta Customs Area", "reference_id": "RNP432"}, {"nameLocal": "Post Office Area", "parentId": "RNP303", "displayName": "Post Office Area", "reference_id": "RNP329"}, {"nameLocal": "Pragati Tole Area", "parentId": "RNP303", "displayName": "Pragati Tole Area", "reference_id": "RNP509"}, {"nameLocal": "Carromboard Chowk", "parentId": "RNP559", "displayName": "Carromboard Chowk", "reference_id": "RNP819"}, {"nameLocal": "Champapur Playground Area", "parentId": "RNP559", "displayName": "Champapur Playground Area", "reference_id": "RNP657"}, {"nameLocal": "Durgapur", "parentId": "RNP559", "displayName": "Durgapur", "reference_id": "RNP979"}, {"nameLocal": "Jamunkhadi", "parentId": "RNP559", "displayName": "Jamunkhadi", "reference_id": "RNP959"}, {"nameLocal": "Kalisthan Chowk", "parentId": "RNP559", "displayName": "Kalisthan Chowk", "reference_id": "RNP1009"}, {"nameLocal": "Kankai Multiple Campus Area", "parentId": "RNP559", "displayName": "Kankai Multiple Campus Area", "reference_id": "RNP660"}, {"nameLocal": "Kankai Municipality Office Area", "parentId": "RNP559", "displayName": "Kankai Municipality Office Area", "reference_id": "RNP1053"}, {"nameLocal": "Koti Hom Bus Park Area", "parentId": "RNP559", "displayName": "Koti Hom Bus Park Area", "reference_id": "RNP707"}, {"nameLocal": "Sangam Tole", "parentId": "RNP559", "displayName": "Sangam Tole", "reference_id": "RNP670"}, {"nameLocal": "Surunga Chowk", "parentId": "RNP559", "displayName": "Surunga Chowk", "reference_id": "RNP1023"}, {"nameLocal": "Tulasibari Playground Area", "parentId": "RNP559", "displayName": "Tulasibari Playground Area", "reference_id": "RNP636"}, {"nameLocal": "Budhabare", "parentId": "RNP569", "displayName": "Budhabare", "reference_id": "RNP917"}, {"nameLocal": "Gange Chowk", "parentId": "RNP569", "displayName": "Gange Chowk", "reference_id": "RNP1034"}, {"nameLocal": "Jante Bazaar", "parentId": "RNP569", "displayName": "Jante Bazaar", "reference_id": "RNP880"}, {"nameLocal": "Kishan Chowk", "parentId": "RNP569", "displayName": "Kishan Chowk", "reference_id": "RNP649"}, {"nameLocal": "Letang Bazaar", "parentId": "RNP569", "displayName": "Letang Bazaar", "reference_id": "RNP1085"}, {"nameLocal": "Madan Chowk", "parentId": "RNP569", "displayName": "Madan Chowk", "reference_id": "RNP807"}, {"nameLocal": "Majuwa Bus Park Area", "parentId": "RNP569", "displayName": "Majuwa Bus Park Area", "reference_id": "RNP604"}, {"nameLocal": "Rai Tole", "parentId": "RNP569", "displayName": "Rai Tole", "reference_id": "RNP635"}, {"nameLocal": "Aitabare Chowk", "parentId": "RNP560", "displayName": "Aitabare Chowk", "reference_id": "RNP1015"}, {"nameLocal": "Bhutanese Refuse Camp Area", "parentId": "RNP560", "displayName": "Bhutanese Refuse Camp Area", "reference_id": "RNP927"}, {"nameLocal": "Bokre Chowk", "parentId": "RNP560", "displayName": "Bokre Chowk", "reference_id": "RNP912"}, {"nameLocal": "Buddha Chowk", "parentId": "RNP560", "displayName": "Buddha Chowk", "reference_id": "RNP750"}, {"nameLocal": "Haatkhola Bazaar", "parentId": "RNP560", "displayName": "Haatkhola Bazaar", "reference_id": "RNP766"}, {"nameLocal": "Hasandaha Bus Stop Area", "parentId": "RNP560", "displayName": "Hasandaha Bus Stop Area", "reference_id": "RNP601"}, {"nameLocal": "Hasandaha Cricket Ground Area", "parentId": "RNP560", "displayName": "Hasandaha Cricket Ground Area", "reference_id": "RNP803"}, {"nameLocal": "Pathari Bazaar", "parentId": "RNP560", "displayName": "Pathari Bazaar", "reference_id": "RNP1040"}, {"nameLocal": "Ratna Park Area", "parentId": "RNP560", "displayName": "Ratna Park Area", "reference_id": "RNP876"}, {"nameLocal": "Subedi Chowk", "parentId": "RNP560", "displayName": "Subedi Chowk", "reference_id": "RNP703"}, {"nameLocal": "Aamtola Bazaar", "parentId": "RNP583", "displayName": "Aamtola Bazaar", "reference_id": "RNP754"}, {"nameLocal": "Drabesha", "parentId": "RNP583", "displayName": "Drabesha", "reference_id": "RNP855"}, {"nameLocal": "Janata Multiple Campus Area", "parentId": "RNP583", "displayName": "Janata Multiple Campus Area", "reference_id": "RNP605"}, {"nameLocal": "Rangeli Bazaar", "parentId": "RNP583", "displayName": "Rangeli Bazaar", "reference_id": "RNP626"}, {"nameLocal": "Rangeli Hospital Area", "parentId": "RNP583", "displayName": "Rangeli Hospital Area", "reference_id": "RNP844"}, {"nameLocal": "Aambari Chowk", "parentId": "RNP547", "displayName": "Aambari Chowk", "reference_id": "RNP990"}, {"nameLocal": "Damravitta Bazaar", "parentId": "RNP547", "displayName": "Damravitta Bazaar", "reference_id": "RNP739"}, {"nameLocal": "Govindapur", "parentId": "RNP547", "displayName": "Govindapur", "reference_id": "RNP634"}, {"nameLocal": "Itahara Chowk", "parentId": "RNP547", "displayName": "Itahara Chowk", "reference_id": "RNP901"}, {"nameLocal": "Sijuwa Chowk", "parentId": "RNP547", "displayName": "Sijuwa Chowk", "reference_id": "RNP740"}, {"nameLocal": "Sombare Bazar", "parentId": "RNP547", "displayName": "Sombare Bazar", "reference_id": "RNP1062"}, {"nameLocal": "Tribhuwan Chowk", "parentId": "RNP547", "displayName": "Tribhuwan Chowk", "reference_id": "RNP1055"}, {"nameLocal": "Bangdada", "parentId": "RNP561", "displayName": "Bangdada", "reference_id": "RNP716"}, {"nameLocal": "Campus Mode", "parentId": "RNP561", "displayName": "Campus Mode", "reference_id": "RNP1010"}, {"nameLocal": "Dharampur Bus Park Area", "parentId": "RNP561", "displayName": "Dharampur Bus Park Area", "reference_id": "RNP1021"}, {"nameLocal": "Domukha Chowk", "parentId": "RNP561", "displayName": "Domukha Chowk", "reference_id": "RNP810"}, {"nameLocal": "Dudamari Chowk", "parentId": "RNP561", "displayName": "Dudamari Chowk", "reference_id": "RNP747"}, {"nameLocal": "Dudhe", "parentId": "RNP561", "displayName": "Dudhe", "reference_id": "RNP984"}, {"nameLocal": "Haldar Chowk", "parentId": "RNP561", "displayName": "Haldar Chowk", "reference_id": "RNP798"}, {"nameLocal": "High School Chowk", "parentId": "RNP561", "displayName": "High School Chowk", "reference_id": "RNP1039"}, {"nameLocal": "Jhil Jhile Bus Park Area", "parentId": "RNP561", "displayName": "Jhil Jhile Bus Park Area", "reference_id": "RNP928"}, {"nameLocal": "Nahar Chowk", "parentId": "RNP561", "displayName": "Nahar Chowk", "reference_id": "RNP823"}, {"nameLocal": "Tumden Chowk", "parentId": "RNP561", "displayName": "Tumden Chowk", "reference_id": "RNP818"}, {"nameLocal": "Amardaha", "parentId": "RNP550", "displayName": "Amardaha", "reference_id": "RNP658"}, {"nameLocal": "Dainiya", "parentId": "RNP550", "displayName": "Dainiya", "reference_id": "RNP1089"}, {"nameLocal": "Dohamana Pashu Bazar", "parentId": "RNP550", "displayName": "Dohamana Pashu Bazar", "reference_id": "RNP676"}, {"nameLocal": "Sunbarshi Temple Area", "parentId": "RNP550", "displayName": "Sunbarshi Temple Area", "reference_id": "RNP849"}, {"nameLocal": "Baliya Chowk", "parentId": "RNP562", "displayName": "Baliya Chowk", "reference_id": "RNP813"}, {"nameLocal": "Belepur", "parentId": "RNP562", "displayName": "Belepur", "reference_id": "RNP1011"}, {"nameLocal": "Birat Chowk Area", "parentId": "RNP562", "displayName": "Birat Chowk Area", "reference_id": "RNP787"}, {"nameLocal": "Dulari Chowk", "parentId": "RNP562", "displayName": "Dulari Chowk", "reference_id": "RNP875"}, {"nameLocal": "Goth Gaun City Area", "parentId": "RNP562", "displayName": "Goth Gaun City Area", "reference_id": "RNP1000"}, {"nameLocal": "Kali Mandir Banigama", "parentId": "RNP562", "displayName": "Kali Mandir Banigama", "reference_id": "RNP1080"}, {"nameLocal": "Khorsane", "parentId": "RNP562", "displayName": "Khorsane", "reference_id": "RNP931"}, {"nameLocal": "Khorsane Chowk", "parentId": "RNP562", "displayName": "Khorsane Chowk", "reference_id": "RNP792"}, {"nameLocal": "Lalvitti", "parentId": "RNP562", "displayName": "Lalvitti", "reference_id": "RNP608"}, {"nameLocal": "Mirgauliya Bazar", "parentId": "RNP562", "displayName": "Mirgauliya Bazar", "reference_id": "RNP1084"}, {"nameLocal": "Pu Gate Area", "parentId": "RNP562", "displayName": "Pu Gate Area", "reference_id": "RNP665"}, {"nameLocal": "Tribeni Chowk", "parentId": "RNP562", "displayName": "Tribeni Chowk", "reference_id": "RNP1007"}, {"nameLocal": "Chuhade Chowk", "parentId": "RNP571", "displayName": "Chuhade Chowk", "reference_id": "RNP607"}, {"nameLocal": "Golbazaar", "parentId": "RNP571", "displayName": "Golbazaar", "reference_id": "RNP932"}, {"nameLocal": "Jaljale Bazaar", "parentId": "RNP571", "displayName": "Jaljale Bazaar", "reference_id": "RNP1086"}, {"nameLocal": "Puma Chowk", "parentId": "RNP571", "displayName": "Puma Chowk", "reference_id": "RNP1044"}, {"nameLocal": "Triyuga Janata Multiple Campus Area", "parentId": "RNP571", "displayName": "Triyuga Janata Multiple Campus Area", "reference_id": "RNP1008"}, {"nameLocal": "Udayapur FM Area", "parentId": "RNP571", "displayName": "Udayapur FM Area", "reference_id": "RNP1077"}, {"nameLocal": "Yalambar Tole", "parentId": "RNP571", "displayName": "Yalambar Tole", "reference_id": "RNP706"}, {"nameLocal": "Aaitabare Area", "parentId": "R7452982", "displayName": "Aaitabare Area", "reference_id": "R80317674"}, {"nameLocal": "Bargachhi Chowk Area", "parentId": "R7452982", "displayName": "Bargachhi Chowk Area", "reference_id": "R80317678"}, {"nameLocal": "Durgapuri Area", "parentId": "R7452982", "displayName": "Durgapuri Area", "reference_id": "R80317677"}, {"nameLocal": "Madhumalla Area", "parentId": "R7452982", "displayName": "Madhumalla Area", "reference_id": "R80317675"}, {"nameLocal": "Mangalbare Area", "parentId": "R7452982", "displayName": "Mangalbare Area", "reference_id": "R80317673"}, {"nameLocal": "Bhajani Trishakti", "parentId": "RNP556", "displayName": "Bhajani Trishakti", "reference_id": "RNP940"}, {"nameLocal": "Joshipur", "parentId": "RNP556", "displayName": "Joshipur", "reference_id": "RNP638"}, {"nameLocal": "Thapapur - Mahadeuli", "parentId": "RNP556", "displayName": "Thapapur - Mahadeuli", "reference_id": "RNP897"}, {"nameLocal": "Beldadi", "parentId": "RNP305", "displayName": "Beldadi", "reference_id": "RNP344"}, {"nameLocal": "Bhagatpur", "parentId": "RNP305", "displayName": "Bhagatpur", "reference_id": "RNP460"}, {"nameLocal": "Bhasi", "parentId": "RNP305", "displayName": "Bhasi", "reference_id": "RNP380"}, {"nameLocal": "Gadda Chauki", "parentId": "RNP305", "displayName": "Gadda Chauki", "reference_id": "RNP477"}, {"nameLocal": "Gobariya", "parentId": "RNP305", "displayName": "Gobariya", "reference_id": "RNP438"}, {"nameLocal": "Mahendranagar Bazar", "parentId": "RNP305", "displayName": "Mahendranagar Bazar", "reference_id": "RNP446"}, {"nameLocal": "Suda", "parentId": "RNP305", "displayName": "Suda", "reference_id": "RNP338"}, {"nameLocal": "Adarsha Tole Area", "parentId": "R80301932", "displayName": "Adarsha Tole Area", "reference_id": "R80314501"}, {"nameLocal": "Airport area", "parentId": "R80301932", "displayName": "Airport area", "reference_id": "RNP964"}, {"nameLocal": "Badhara Area", "parentId": "R80301932", "displayName": "Badhara Area", "reference_id": "R80314502"}, {"nameLocal": "Baiya Behandi", "parentId": "R80301932", "displayName": "Baiya Behandi", "reference_id": "R80314509"}, {"nameLocal": "Bishalnagar Area", "parentId": "R80301932", "displayName": "Bishalnagar Area", "reference_id": "R80314504"}, {"nameLocal": "Boradadi area", "parentId": "R80301932", "displayName": "Boradadi area", "reference_id": "RNP795"}, {"nameLocal": "Campus Road Area", "parentId": "R80301932", "displayName": "Campus Road Area", "reference_id": "R80314513"}, {"nameLocal": "Chatakpur Area", "parentId": "R80301932", "displayName": "Chatakpur Area", "reference_id": "R80314512"}, {"nameLocal": "Chauraha Area", "parentId": "R80301932", "displayName": "Chauraha Area", "reference_id": "R80314503"}, {"nameLocal": "Ganesh mandir area", "parentId": "R80301932", "displayName": "Ganesh mandir area", "reference_id": "RNP710"}, {"nameLocal": "Hasanpur Area", "parentId": "R80301932", "displayName": "Hasanpur Area", "reference_id": "R6694573"}, {"nameLocal": "Jai Area", "parentId": "R80301932", "displayName": "Jai Area", "reference_id": "R80314508"}, {"nameLocal": "kailali customs office", "parentId": "R80301932", "displayName": "kailali customs office", "reference_id": "RNP991"}, {"nameLocal": "Kailali District Court Area", "parentId": "R80301932", "displayName": "Kailali District Court Area", "reference_id": "R80314510"}, {"nameLocal": "Khaptad Chowk", "parentId": "R80301932", "displayName": "Khaptad Chowk", "reference_id": "RNP733"}, {"nameLocal": "LN Chowk", "parentId": "R80301932", "displayName": "LN Chowk", "reference_id": "RNP594"}, {"nameLocal": "Milan Chowk Area", "parentId": "R80301932", "displayName": "Milan Chowk Area", "reference_id": "RNP884"}, {"nameLocal": "Om Shanti Tole", "parentId": "R80301932", "displayName": "Om Shanti Tole", "reference_id": "R80314511"}, {"nameLocal": "Rajpur area", "parentId": "R80301932", "displayName": "Rajpur area", "reference_id": "RNP1056"}, {"nameLocal": "Santoshi Tole Area", "parentId": "R80301932", "displayName": "Santoshi Tole Area", "reference_id": "R80314507"}, {"nameLocal": "Satkar Chowk Area", "parentId": "R80301932", "displayName": "Satkar Chowk Area", "reference_id": "RNP1019"}, {"nameLocal": "Shivpuri dham area", "parentId": "R80301932", "displayName": "Shivpuri dham area", "reference_id": "RNP829"}, {"nameLocal": "Taranagar Area", "parentId": "R80301932", "displayName": "Taranagar Area", "reference_id": "R80314506"}, {"nameLocal": "Tiketal Area", "parentId": "R80301932", "displayName": "Tiketal Area", "reference_id": "RNP614"}, {"nameLocal": "Uttar Behandi", "parentId": "R80301932", "displayName": "Uttar Behandi", "reference_id": "R80314505"}, {"nameLocal": "Aambari Galli Area", "parentId": "RNP552", "displayName": "Aambari Galli Area", "reference_id": "RNP999"}, {"nameLocal": "Banbehada Bazaar", "parentId": "RNP552", "displayName": "Banbehada Bazaar", "reference_id": "RNP680"}, {"nameLocal": "Chaumala Bazaar", "parentId": "RNP552", "displayName": "Chaumala Bazaar", "reference_id": "RNP1016"}, {"nameLocal": "Kuchaini", "parentId": "RNP552", "displayName": "Kuchaini", "reference_id": "RNP693"}, {"nameLocal": "Mangalpur Bazaar", "parentId": "RNP552", "displayName": "Mangalpur Bazaar", "reference_id": "RNP856"}, {"nameLocal": "Ghoda Ghodi Multiple College Area", "parentId": "RNP546", "displayName": "Ghoda Ghodi Multiple College Area", "reference_id": "RNP957"}, {"nameLocal": "Jaya Nagar", "parentId": "RNP546", "displayName": "Jaya Nagar", "reference_id": "RNP1081"}, {"nameLocal": "Pahalmanpur Bazaar", "parentId": "RNP546", "displayName": "Pahalmanpur Bazaar", "reference_id": "RNP1054"}, {"nameLocal": "Sukhad Bazaar", "parentId": "RNP546", "displayName": "Sukhad Bazaar", "reference_id": "RNP972"}, {"nameLocal": "Attariya Chowk", "parentId": "RNP587", "displayName": "Attariya Chowk", "reference_id": "RNP691"}, {"nameLocal": "Dixit Nagar", "parentId": "RNP587", "displayName": "Dixit Nagar", "reference_id": "RNP817"}, {"nameLocal": "Geta", "parentId": "RNP587", "displayName": "Geta", "reference_id": "RNP731"}, {"nameLocal": "Krishna Mandir Tole", "parentId": "RNP587", "displayName": "Krishna Mandir Tole", "reference_id": "RNP812"}, {"nameLocal": "Lalpur Football Ground Area", "parentId": "RNP587", "displayName": "Lalpur Football Ground Area", "reference_id": "RNP775"}, {"nameLocal": "Malakheti", "parentId": "RNP587", "displayName": "Malakheti", "reference_id": "RNP793"}, {"nameLocal": "Shreepur", "parentId": "RNP587", "displayName": "Shreepur", "reference_id": "RNP779"}, {"nameLocal": "Syaule Bazar", "parentId": "RNP587", "displayName": "Syaule Bazar", "reference_id": "RNP1033"}, {"nameLocal": "Bybasthit Nagar", "parentId": "RNP585", "displayName": "Bybasthit Nagar", "reference_id": "RNP1027"}, {"nameLocal": "Chisapani Bazaar", "parentId": "RNP585", "displayName": "Chisapani Bazaar", "reference_id": "RNP925"}, {"nameLocal": "Dododhara Chowk", "parentId": "RNP585", "displayName": "Dododhara Chowk", "reference_id": "RNP997"}, {"nameLocal": "Ganeshpur Chowk", "parentId": "RNP585", "displayName": "Ganeshpur Chowk", "reference_id": "RNP674"}, {"nameLocal": "Gulara Bus Park Area", "parentId": "RNP585", "displayName": "Gulara Bus Park Area", "reference_id": "RNP919"}, {"nameLocal": "Lamki Bazaar", "parentId": "RNP585", "displayName": "Lamki Bazaar", "reference_id": "RNP758"}, {"nameLocal": "Lamki Zero Mile", "parentId": "RNP585", "displayName": "Lamki Zero Mile", "reference_id": "RNP951"}, {"nameLocal": "Motipur", "parentId": "RNP585", "displayName": "Motipur", "reference_id": "RNP835"}, {"nameLocal": "Syaule Bazar", "parentId": "RNP585", "displayName": "Syaule Bazar", "reference_id": "RNP1047"}, {"nameLocal": "Thapapur", "parentId": "RNP585", "displayName": "Thapapur", "reference_id": "RNP659"}, {"nameLocal": "Bijayanagar", "parentId": "RNP564", "displayName": "Bijayanagar", "reference_id": "RNP1059"}, {"nameLocal": "Munuwa", "parentId": "RNP564", "displayName": "Munuwa", "reference_id": "RNP672"}, {"nameLocal": "Narayanpur Chauraha", "parentId": "RNP564", "displayName": "Narayanpur Chauraha", "reference_id": "RNP642"}, {"nameLocal": "Satti Bazaar", "parentId": "RNP564", "displayName": "Satti Bazaar", "reference_id": "RNP741"}, {"nameLocal": "Tikapur Airport Area", "parentId": "RNP564", "displayName": "Tikapur Airport Area", "reference_id": "RNP936"}, {"nameLocal": "Tikapur Campus Area", "parentId": "RNP564", "displayName": "Tikapur Campus Area", "reference_id": "RNP663"}, {"nameLocal": "Tikapur Poly Technical Area", "parentId": "RNP564", "displayName": "Tikapur Poly Technical Area", "reference_id": "RNP854"}]