[{"nameLocal": "Banepa", "parentId": "R4583216", "displayName": "Banepa", "reference_id": "R3566353"}, {"nameLocal": "Bhaktapur", "parentId": "R4583216", "displayName": "Bhaktapur", "reference_id": "R4583251"}, {"nameLocal": "Bharatpur", "parentId": "R4583216", "displayName": "Bharatpur", "reference_id": "RNP306"}, {"nameLocal": "Hetauda", "parentId": "R4583216", "displayName": "Hetauda", "reference_id": "RNP292"}, {"nameLocal": "Kalika", "parentId": "R4583216", "displayName": "Kalika", "reference_id": "RNP554"}, {"nameLocal": "Kamalamai", "parentId": "R4583216", "displayName": "Kamalamai", "reference_id": "RNP548"}, {"nameLocal": "Kathmandu Metro 10 - New Baneshwor Area", "parentId": "R4583216", "displayName": "Kathmandu Metro 10 - New Baneshwor Area", "reference_id": "R80301897"}, {"nameLocal": "Kathmandu Metro 11 - Maitighar Area", "parentId": "R4583216", "displayName": "Kathmandu Metro 11 - Maitighar Area", "reference_id": "R80301913"}, {"nameLocal": "Kathmandu Metro 12 - Teku Area", "parentId": "R4583216", "displayName": "Kathmandu Metro 12 - Teku Area", "reference_id": "R80301930"}, {"nameLocal": "Kathmandu Metro 13 - Kalimati Area", "parentId": "R4583216", "displayName": "Kathmandu Metro 13 - Kalimati Area", "reference_id": "R80301904"}, {"nameLocal": "Kathmandu Metro 14 - Kuleshwor Area", "parentId": "R4583216", "displayName": "Kathmandu Metro 14 - Kuleshwor Area", "reference_id": "R80301900"}, {"nameLocal": "Kathmandu Metro 15 - Swayambhu Area", "parentId": "R4583216", "displayName": "Kathmandu Metro 15 - Swayambhu Area", "reference_id": "R80301923"}, {"nameLocal": "Kathmandu Metro 16 - Nayabazar Area", "parentId": "R4583216", "displayName": "Kathmandu Metro 16 - Nayabazar Area", "reference_id": "R80301929"}, {"nameLocal": "Kathmandu Metro 17 - Chhetrapati Area", "parentId": "R4583216", "displayName": "Kathmandu Metro 17 - Chhetrapati Area", "reference_id": "R80301917"}, {"nameLocal": "Kathmandu Metro 18 - Raktakali Area", "parentId": "R4583216", "displayName": "Kathmandu Metro 18 - Raktakali Area", "reference_id": "R80301906"}, {"nameLocal": "Kathmandu Metro 19 - Hanumandhoka Area", "parentId": "R4583216", "displayName": "Kathmandu Metro 19 - Hanumandhoka Area", "reference_id": "R80301896"}, {"nameLocal": "Kathmandu Metro 1 - Naxal Area", "parentId": "R4583216", "displayName": "Kathmandu Metro 1 - Naxal Area", "reference_id": "R80301912"}, {"nameLocal": "Kathmandu Metro 20 - Marutol Area", "parentId": "R4583216", "displayName": "Kathmandu Metro 20 - Marutol Area", "reference_id": "R80301919"}, {"nameLocal": "Kathmandu Metro 21 - Lagantole Area", "parentId": "R4583216", "displayName": "Kathmandu Metro 21 - Lagantole Area", "reference_id": "R80301893"}, {"nameLocal": "Kathmandu Metro 22 - Newroad Area", "parentId": "R4583216", "displayName": "Kathmandu Metro 22 - Newroad Area", "reference_id": "R80301915"}, {"nameLocal": "Kathmandu Metro 23 - Basantapur Area", "parentId": "R4583216", "displayName": "Kathmandu Metro 23 - Basantapur Area", "reference_id": "R80301925"}, {"nameLocal": "Kathmandu Metro 24 - Indrachowk Area", "parentId": "R4583216", "displayName": "Kathmandu Metro 24 - Indrachowk Area", "reference_id": "R80301898"}, {"nameLocal": "Kathmandu Metro 25 - Ason Area", "parentId": "R4583216", "displayName": "Kathmandu Metro 25 - Ason Area", "reference_id": "R80301908"}, {"nameLocal": "Kathmandu Metro 26 - Samakhusi Area", "parentId": "R4583216", "displayName": "Kathmandu Metro 26 - Samakhusi Area", "reference_id": "RNP8"}, {"nameLocal": "Kathmandu Metro 26 - Thamel Area", "parentId": "R4583216", "displayName": "Kathmandu Metro 26 - Thamel Area", "reference_id": "R80301901"}, {"nameLocal": "Kathmandu Metro 27 - Bhotahiti Area", "parentId": "R4583216", "displayName": "Kathmandu Metro 27 - Bhotahiti Area", "reference_id": "R80301899"}, {"nameLocal": "Kathmandu Metro 28 - Bagbazar Area", "parentId": "R4583216", "displayName": "Kathmandu Metro 28 - Bagbazar Area", "reference_id": "R80301922"}, {"nameLocal": "Kathmandu Metro 28 - Kamaladi Area", "parentId": "R4583216", "displayName": "Kathmandu Metro 28 - Kamaladi Area", "reference_id": "R80301910"}, {"nameLocal": "Kathmandu Metro 29 - Anamnagar Area", "parentId": "R4583216", "displayName": "Kathmandu Metro 29 - Anamnagar Area", "reference_id": "R80301918"}, {"nameLocal": "Kathmandu Metro 29 - Putalisadak Area", "parentId": "R4583216", "displayName": "Kathmandu Metro 29 - Putalisadak Area", "reference_id": "R80301924"}, {"nameLocal": "Kathmandu Metro 2 - Lazimpat Area", "parentId": "R4583216", "displayName": "Kathmandu Metro 2 - Lazimpat Area", "reference_id": "R80301909"}, {"nameLocal": "Kathmandu Metro 30 - Maitidevi  Area", "parentId": "R4583216", "displayName": "Kathmandu Metro 30 - Maitidevi  Area", "reference_id": "R80301902"}, {"nameLocal": "Kathmandu Metro 31 - Min Bhawan Area", "parentId": "R4583216", "displayName": "Kathmandu Metro 31 - Min Bhawan Area", "reference_id": "R80301892"}, {"nameLocal": "Kathmandu Metro 32 - Koteshwor Area", "parentId": "R4583216", "displayName": "Kathmandu Metro 32 - Koteshwor Area", "reference_id": "R80301907"}, {"nameLocal": "Kathmandu Metro 32 - Tinkune Area", "parentId": "R4583216", "displayName": "Kathmandu Metro 32 - Tinkune Area", "reference_id": "R80301916"}, {"nameLocal": "Kathmandu Metro 3 - Baluwatar Area", "parentId": "R4583216", "displayName": "Kathmandu Metro 3 - Baluwatar Area", "reference_id": "R80301905"}, {"nameLocal": "Kathmandu Metro 3 - Maharajgunj Area", "parentId": "R4583216", "displayName": "Kathmandu Metro 3 - Maharajgunj Area", "reference_id": "R80301894"}, {"nameLocal": "Kathmandu Metro 4 - Bishalnagar Area", "parentId": "R4583216", "displayName": "Kathmandu Metro 4 - Bishalnagar Area", "reference_id": "R80301903"}, {"nameLocal": "Kathmandu Metro 5 - Tangal Area", "parentId": "R4583216", "displayName": "Kathmandu Metro 5 - Tangal Area", "reference_id": "R80301914"}, {"nameLocal": "Kathmandu Metro 7 - Chabahil Area", "parentId": "R4583216", "displayName": "Kathmandu Metro 7 - Chabahil Area", "reference_id": "R80301926"}, {"nameLocal": "Kathmandu Metro 8 - Gaushala Area", "parentId": "R4583216", "displayName": "Kathmandu Metro 8 - Gaushala Area", "reference_id": "R80301920"}, {"nameLocal": "Kathmandu Metro 9 - Sinamangal Area", "parentId": "R4583216", "displayName": "Kathmandu Metro 9 - Sinamangal Area", "reference_id": "R80301895"}, {"nameLocal": "Kathmandu Outside Ring Road", "parentId": "R4583216", "displayName": "Kathmandu Outside Ring Road", "reference_id": "R80301911"}, {"nameLocal": "Khairehani", "parentId": "R4583216", "displayName": "Khairehani", "reference_id": "RNP304"}, {"nameLocal": "Lalitpur Inside Ring Road", "parentId": "R4583216", "displayName": "Lalitpur Inside Ring Road", "reference_id": "R80301927"}, {"nameLocal": "Lalitpur Outside Ring Road", "parentId": "R4583216", "displayName": "Lalitpur Outside Ring Road", "reference_id": "R80301928"}, {"nameLocal": "Madi", "parentId": "R4583216", "displayName": "Madi", "reference_id": "RNP580"}, {"nameLocal": "Panauti", "parentId": "R4583216", "displayName": "Panauti", "reference_id": "RNP581"}, {"nameLocal": "Rapti", "parentId": "R4583216", "displayName": "Rapti", "reference_id": "RNP294"}, {"nameLocal": "Ratnanagar", "parentId": "R4583216", "displayName": "Ratnanagar", "reference_id": "RNP291"}, {"nameLocal": "Bhimad", "parentId": "R4583212", "displayName": "Bhimad", "reference_id": "RNP543"}, {"nameLocal": "Damauli", "parentId": "R4583212", "displayName": "Damauli", "reference_id": "RNP7"}, {"nameLocal": "Devchuli", "parentId": "R4583212", "displayName": "Devchuli", "reference_id": "RNP567"}, {"nameLocal": "Gaindakot", "parentId": "R4583212", "displayName": "Gaindakot", "reference_id": "RNP293"}, {"nameLocal": "Kawasoti", "parentId": "R4583212", "displayName": "Kawasoti", "reference_id": "RNP299"}, {"nameLocal": "Lekhnath", "parentId": "R4583212", "displayName": "Lekhnath", "reference_id": "RNP9"}, {"nameLocal": "Madhyabindu", "parentId": "R4583212", "displayName": "Madhyabindu", "reference_id": "RNP565"}, {"nameLocal": "Pokhara", "parentId": "R4583212", "displayName": "Pokhara", "reference_id": "R6104486"}, {"nameLocal": "Shuklagandaki", "parentId": "R4583212", "displayName": "Shuklagandaki", "reference_id": "RNP553"}, {"nameLocal": "Sundarbazar", "parentId": "R4583212", "displayName": "Sundarbazar", "reference_id": "RNP574"}, {"nameLocal": "Waling", "parentId": "R4583212", "displayName": "Waling", "reference_id": "RNP579"}, {"nameLocal": "Bheriganga", "parentId": "R4583217", "displayName": "Bheriganga", "reference_id": "RNP545"}, {"nameLocal": "Birendranagar - Surkhet", "parentId": "R4583217", "displayName": "Birendranagar - Surkhet", "reference_id": "R4586369"}, {"nameLocal": "Gurbhakot", "parentId": "R4583217", "displayName": "Gurbhakot", "reference_id": "RNP575"}, {"nameLocal": "Lekbeshi", "parentId": "R4583217", "displayName": "Lekbeshi", "reference_id": "RNP582"}, {"nameLocal": "Banganga", "parentId": "R4583221", "displayName": "Banganga", "reference_id": "RNP558"}, {"nameLocal": "Bardaghat", "parentId": "R4583221", "displayName": "Bardaghat", "reference_id": "RNP578"}, {"nameLocal": "Butwal", "parentId": "R4583221", "displayName": "Butwal", "reference_id": "R4590927"}, {"nameLocal": "Dang - Ghorahi", "parentId": "R4583221", "displayName": "Dang - Ghorahi", "reference_id": "RNP298"}, {"nameLocal": "Dang - Tulsipur", "parentId": "R4583221", "displayName": "Dang - Tulsipur", "reference_id": "RNP288"}, {"nameLocal": "Devdaha", "parentId": "R4583221", "displayName": "Devdaha", "reference_id": "RNP14"}, {"nameLocal": "Kohalpur", "parentId": "R4583221", "displayName": "Kohalpur", "reference_id": "RNP539"}, {"nameLocal": "Lamahi", "parentId": "R4583221", "displayName": "Lamahi", "reference_id": "RNP541"}, {"nameLocal": "Lumbini Sanskriti", "parentId": "R4583221", "displayName": "Lumbini Sanskriti", "reference_id": "RNP17"}, {"nameLocal": "Nepalgunj", "parentId": "R4583221", "displayName": "Nepalgunj", "reference_id": "RNP289"}, {"nameLocal": "Ramgram", "parentId": "R4583221", "displayName": "Ramgram", "reference_id": "RNP21"}, {"nameLocal": "Sainamaina", "parentId": "R4583221", "displayName": "Sainamaina", "reference_id": "RNP12"}, {"nameLocal": "Shivaraj - Chanauta", "parentId": "R4583221", "displayName": "Shivaraj - Chanauta", "reference_id": "RNP555"}, {"nameLocal": "Sidarthanagar - Bhairahawa", "parentId": "R4583221", "displayName": "Sidarthanagar - Bhairahawa", "reference_id": "R80301931"}, {"nameLocal": "Sunwal", "parentId": "R4583221", "displayName": "Sunwal", "reference_id": "RNP15"}, {"nameLocal": "Tansen", "parentId": "R4583221", "displayName": "Tansen", "reference_id": "RNP584"}, {"nameLocal": "Taulihawa - Kapilvastu", "parentId": "R4583221", "displayName": "Taulihawa - Kapilvastu", "reference_id": "RNP18"}, {"nameLocal": "Tilotama", "parentId": "R4583221", "displayName": "Tilotama", "reference_id": "RNP11"}, {"nameLocal": "Bardibas", "parentId": "R4583213", "displayName": "Bardibas", "reference_id": "RNP23"}, {"nameLocal": "Bideha", "parentId": "R4583213", "displayName": "Bideha", "reference_id": "RNP576"}, {"nameLocal": "Birgunj", "parentId": "R4583213", "displayName": "Birgunj", "reference_id": "RNP295"}, {"nameLocal": "Chhireswarnath", "parentId": "R4583213", "displayName": "Chhireswarnath", "reference_id": "RNP22"}, {"nameLocal": "Dhanushadham", "parentId": "R4583213", "displayName": "Dhanushadham", "reference_id": "RNP586"}, {"nameLocal": "Golbazar", "parentId": "R4583213", "displayName": "Golbazar", "reference_id": "RNP570"}, {"nameLocal": "Hansapur", "parentId": "R4583213", "displayName": "Hansapur", "reference_id": "RNP591"}, {"nameLocal": "Hariwan", "parentId": "R4583213", "displayName": "Hariwan", "reference_id": "RNP551"}, {"nameLocal": "Jaleswor", "parentId": "R4583213", "displayName": "Jaleswor", "reference_id": "RNP13"}, {"nameLocal": "Janakpur", "parentId": "R4583213", "displayName": "Janakpur", "reference_id": "R7678047"}, {"nameLocal": "Jeetpur - Simara", "parentId": "R4583213", "displayName": "Jeetpur - Simara", "reference_id": "RNP308"}, {"nameLocal": "Kalaiya", "parentId": "R4583213", "displayName": "Kalaiya", "reference_id": "RNP302"}, {"nameLocal": "Lahan", "parentId": "R4583213", "displayName": "Lahan", "reference_id": "RNP301"}, {"nameLocal": "Lalbandi", "parentId": "R4583213", "displayName": "Lalbandi", "reference_id": "RNP572"}, {"nameLocal": "Mirchaiya", "parentId": "R4583213", "displayName": "Mirchaiya", "reference_id": "RNP573"}, {"nameLocal": "Mithila", "parentId": "R4583213", "displayName": "Mithila", "reference_id": "RNP540"}, {"nameLocal": "Mithila Bihari", "parentId": "R4583213", "displayName": "Mithila Bihari", "reference_id": "RNP563"}, {"nameLocal": "Nagarain", "parentId": "R4583213", "displayName": "Nagarain", "reference_id": "RNP557"}, {"nameLocal": "Rajbiraj", "parentId": "R4583213", "displayName": "Rajbiraj", "reference_id": "RNP538"}, {"nameLocal": "Sabaila", "parentId": "R4583213", "displayName": "Sabaila", "reference_id": "RNP566"}, {"nameLocal": "Shahidnagar", "parentId": "R4583213", "displayName": "Shahidnagar", "reference_id": "RNP544"}, {"nameLocal": "Arjundhara", "parentId": "R4583211", "displayName": "Arjundhara", "reference_id": "RNP577"}, {"nameLocal": "Belbari", "parentId": "R4583211", "displayName": "Belbari", "reference_id": "RNP589"}, {"nameLocal": "Bhadrapur", "parentId": "R4583211", "displayName": "Bhadrapur", "reference_id": "RNP290"}, {"nameLocal": "Biratnagar", "parentId": "R4583211", "displayName": "Biratnagar", "reference_id": "R7458894"}, {"nameLocal": "Birtamod", "parentId": "R4583211", "displayName": "Birtamod", "reference_id": "RNP307"}, {"nameLocal": "Chandragadi", "parentId": "R4583211", "displayName": "Chandragadi", "reference_id": "RNP300"}, {"nameLocal": "Damak", "parentId": "R4583211", "displayName": "Damak", "reference_id": "RNP296"}, {"nameLocal": "Dhankuta", "parentId": "R4583211", "displayName": "Dhankuta", "reference_id": "RNP568"}, {"nameLocal": "Dharan", "parentId": "R4583211", "displayName": "Dharan", "reference_id": "R7463953"}, {"nameLocal": "Duhabi", "parentId": "R4583211", "displayName": "Duhabi", "reference_id": "RNP549"}, {"nameLocal": "Gauradaha", "parentId": "R4583211", "displayName": "Gauradaha", "reference_id": "RNP542"}, {"nameLocal": "Ilam", "parentId": "R4583211", "displayName": "Ilam", "reference_id": "RNP590"}, {"nameLocal": "Inaruwa", "parentId": "R4583211", "displayName": "Inaruwa", "reference_id": "RNP588"}, {"nameLocal": "Itahari", "parentId": "R4583211", "displayName": "Itahari", "reference_id": "R7464257"}, {"nameLocal": "Kakarbhitta", "parentId": "R4583211", "displayName": "Kakarbhitta", "reference_id": "RNP303"}, {"nameLocal": "Kankai", "parentId": "R4583211", "displayName": "Kankai", "reference_id": "RNP559"}, {"nameLocal": "Letang Bhogateni", "parentId": "R4583211", "displayName": "Letang Bhogateni", "reference_id": "RNP569"}, {"nameLocal": "Pathari-Shanischare", "parentId": "R4583211", "displayName": "Pathari-Shanischare", "reference_id": "RNP560"}, {"nameLocal": "Rangeli", "parentId": "R4583211", "displayName": "Rangeli", "reference_id": "RNP583"}, {"nameLocal": "Ratuwamai", "parentId": "R4583211", "displayName": "Ratuwamai", "reference_id": "RNP547"}, {"nameLocal": "Shivasatakshi", "parentId": "R4583211", "displayName": "Shivasatakshi", "reference_id": "RNP561"}, {"nameLocal": "Sunawarshi", "parentId": "R4583211", "displayName": "Sunawarshi", "reference_id": "RNP550"}, {"nameLocal": "Sundar Haraincha", "parentId": "R4583211", "displayName": "Sundar Haraincha", "reference_id": "RNP562"}, {"nameLocal": "Triyuga", "parentId": "R4583211", "displayName": "Triyuga", "reference_id": "RNP571"}, {"nameLocal": "Urlabari", "parentId": "R4583211", "displayName": "Urlabari", "reference_id": "R7452982"}, {"nameLocal": "Bhajani", "parentId": "R4583223", "displayName": "Bhajani", "reference_id": "RNP556"}, {"nameLocal": "Bhimdatta-Mahendranagar", "parentId": "R4583223", "displayName": "Bhimdatta-Mahendranagar", "reference_id": "RNP305"}, {"nameLocal": "Dhangadhi", "parentId": "R4583223", "displayName": "Dhangadhi", "reference_id": "R80301932"}, {"nameLocal": "Gauriganga", "parentId": "R4583223", "displayName": "Gauriganga", "reference_id": "RNP552"}, {"nameLocal": "Ghodaghodi", "parentId": "R4583223", "displayName": "Ghodaghodi", "reference_id": "RNP546"}, {"nameLocal": "Godawari", "parentId": "R4583223", "displayName": "Godawari", "reference_id": "RNP587"}, {"nameLocal": "Lamki Chuha", "parentId": "R4583223", "displayName": "Lamki Chuha", "reference_id": "RNP585"}, {"nameLocal": "Tikapur", "parentId": "R4583223", "displayName": "Tikapur", "reference_id": "RNP564"}]